{
  "type": "FeatureCollection",
  "features": [
    {
      "type": "Feature",
      "geometry": {
        "type": "LineString",
        "coordinates": [
          [
            74.00381,
            30.77605
          ],
          [
            74.05193,
            30.72428
          ],
          [
            74.10441,
            30.67522
          ],
          [
            74.1854,
            30.64033
          ],
          [
            74.24364,
            30.59955
          ],
          [
            74.27026,
            30.53012
          ],
          [
            74.28774,
            30.48675
          ],
          [
            74.33217,
            30.45208
          ],
          [
            74.38784,
            30.40886
          ],
          [
            74.4559,
            30.38563
          ],
          [
            74.54758,
            30.36902
          ],
          [
            74.64051,
            30.3316
          ],
          [
            74.72577,
            30.28369
          ],
          [
            74.75043,
            30.23255
          ],
          [
            74.75783,
            30.16789
          ],
          [
            74.77489,
            30.09726
          ],
          [
            74.83278,
            30.05491
          ],
          [
            74.88694,
            30.02326
          ],
          [
            74.94096,
            30.00969
          ],
          [
            75.00321,
            30.00266
          ],
          [
            75.06787,
            29.98283
          ],
          [
            75.11257,
            29.95035
          ],
          [
            75.16013,
            29.9284
          ],
          [
            75.21276,
            29.90008
          ],
          [
            75.27586,
            29.87126
          ]
        ]
      },
      "properties": {
        "kind": "centerline",
        "source_id": "src_004",
        "points_eta_hours": [
          0,
          1,
          2,
          3,
          4,
          5,
          6,
          7,
          8,
          9,
          10,
          11,
          12,
          13,
          14,
          15,
          16,
          17,
          18,
          19,
          20,
          21,
          22,
          23,
          24
        ]
      }
    },
    {
      "type": "Feature",
      "geometry": {
        "type": "Polygon",
        "coordinates": [
          [
            [
              74.5112,
              31.17854
            ],
            [
              74.5479,
              31.17733
            ],
            [
              74.60968,
              31.13695
            ],
            [
              73.60396,
              30.21156
            ],
            [
              73.5606,
              30.26936
            ],
            [
              73.50066,
              30.37161
            ],
            [
              74.5112,
              31.17854
            ]
          ]
        ]
      },
      "properties": {
        "kind": "band",
        "source_id": "src_004",
        "hour_from": 0,
        "hour_to": 2,
        "risk": 0.98,
        "pm25_delta_ugm3": 150.5
      }
    },
    {
      "type": "Feature",
      "geometry": {
        "type": "Polygon",
        "coordinates": [
          [
            [
              74.39756,
              31.25656
            ],
            [
              74.61604,
              31.16594
            ],
            [
              74.6793,
              31.13147
            ],
            [
              73.81275,
              30.0662
            ],
            [
              73.75942,
              30.11331
            ],
            [
              73.81477,
              30.09324
            ],
            [
              74.39756,
              31.25656
            ]
          ]
        ]
      },
      "properties": {
        "kind": "band",
        "source_id": "src_004",
        "hour_from": 2,
        "hour_to": 4,
        "risk": 0.92,
        "pm25_delta_ugm3": 136.2
      }
    },
    {
      "type": "Feature",
      "geometry": {
        "type": "Polygon",
        "coordinates": [
          [
            [
              74.95067,
              30.83042
            ],
            [
              74.97954,
              30.77373
            ],
            [
              74.76366,
              31.00873
            ],
            [
              74.8106,
              30.97945
            ],
            [
              74.86982,
              30.94037
            ],
            [
              73.91108,
              29.8756
            ],
            [
              73.85891,
              29.92299
            ],
            [
              73.8169,
              29.96306
            ],
            [
              73.56457,
              30.28269
            ],
            [
              73.54001,
              30.36488
            ],
            [
              74.95067,
              30.83042
            ]
          ]
        ]
      },
      "properties": {
        "kind": "band",
        "source_id": "src_004",
        "hour_from": 4,
        "hour_to": 8,
        "risk": 0.86,
        "pm25_delta_ugm3": 117.2
      }
    },
    {
      "type": "Feature",
      "geometry": {
        "type": "Polygon",
        "coordinates": [
          [
            [
              74.64197,
              31.04653
            ],
            [
              74.59718,
              31.05367
            ],
            [
              74.84549,
              31.00286
            ],
            [
              75.03348,
              30.93089
            ],
            [
              75.45019,
              30.58237
            ],
            [
              75.55188,
              30.30931
            ],
            [
              75.54655,
              30.32992
            ],
            [
              75.25815,
              30.66468
            ],
            [
              75.24804,
              30.66528
            ],
            [
              75.08849,
              30.71298
            ],
            [
              75.03425,
              30.71989
            ],
            [
              75.24796,
              30.68899
            ],
            [
              75.56041,
              30.56543
            ],
            [
              75.46531,
              30.60773
            ],
            [
              75.56052,
              30.56857
            ],
            [
              75.56533,
              30.56423
            ],
            [
              75.62977,
              30.5381
            ],
            [
              74.92666,
              29.20349
            ],
            [
              74.86486,
              29.23501
            ],
            [
              74.76486,
              29.28703
            ],
            [
              74.76447,
              29.29203
            ],
            [
              74.58109,
              29.39843
            ],
            [
              74.76183,
              29.31588
            ],
            [
              74.84899,
              29.29942
            ],
            [
              74.68817,
              29.33323
            ],
            [
              74.42262,
              29.44326
            ],
            [
              74.29715,
              29.52809
            ],
            [
              73.97174,
              30.00117
            ],
            [
              73.95027,
              30.15092
            ],
            [
              74.00578,
              29.98104
            ],
            [
              74.25233,
              29.73115
            ],
            [
              74.25351,
              29.73451
            ],
            [
              74.31653,
              29.71744
            ],
            [
              74.137,
              29.77071
            ],
            [
              74.64197,
              31.04653
            ]
          ]
        ]
      },
      "properties": {
        "kind": "band",
        "source_id": "src_004",
        "hour_from": 8,
        "hour_to": 24,
        "risk": 0.73,
        "pm25_delta_ugm3": 71.1
      }
    },
    {
      "type": "Feature",
      "geometry": {
        "type": "LineString",
        "coordinates": [
          [
            73.82585,
            32.10145
          ],
          [
            73.89626,
            32.06464
          ],
          [
            73.96463,
            32.06269
          ],
          [
            74.03534,
            31.99786
          ],
          [
            74.14179,
            31.96187
          ],
          [
            74.26754,
            31.95879
          ],
          [
            74.3738,
            31.93346
          ],
          [
            74.51465,
            31.87911
          ],
          [
            74.64707,
            31.843
          ],
          [
            74.7502,
            31.80879
          ],
          [
            74.81149,
            31.78607
          ],
          [
            74.85196,
            31.77178
          ],
          [
            74.86162,
            31.76235
          ],
          [
            74.88705,
            31.73304
          ],
          [
            74.90492,
            31.70597
          ],
          [
            74.90968,
            31.66715
          ],
          [
            74.92523,
            31.62377
          ],
          [
            74.95659,
            31.58209
          ],
          [
            75.00714,
            31.55196
          ],
          [
            75.06593,
            31.54455
          ],
          [
            75.11784,
            31.54414
          ],
          [
            75.16493,
            31.5374
          ],
          [
            75.21001,
            31.5277
          ],
          [
            75.25373,
            31.51427
          ],
          [
            75.29779,
            31.50743
          ]
        ]
      },
      "properties": {
        "kind": "centerline",
        "source_id": "src_007",
        "points_eta_hours": [
          0,
          1,
          2,
          3,
          4,
          5,
          6,
          7,
          8,
          9,
          10,
          11,
          12,
          13,
          14,
          15,
          16,
          17,
          18,
          19,
          20,
          21,
          22,
          23,
          24
        ]
      }
    },
    {
      "type": "Feature",
      "geometry": {
        "type": "Polygon",
        "coordinates": [
          [
            [
              73.99359,
              32.37231
            ],
            [
              73.90754,
              32.39905
            ],
            [
              73.97632,
              32.40902
            ],
            [
              73.95303,
              31.71636
            ],
            [
              73.88506,
              31.73023
            ],
            [
              73.65911,
              31.83037
            ],
            [
              73.99359,
              32.37231
            ]
          ]
        ]
      },
      "properties": {
        "kind": "band",
        "source_id": "src_007",
        "hour_from": 0,
        "hour_to": 2,
        "risk": 0.78,
        "pm25_delta_ugm3": 118.0
      }
    },
    {
      "type": "Feature",
      "geometry": {
        "type": "Polygon",
        "coordinates": [
          [
            [
              74.2417,
              32.31776
            ],
            [
              74.17012,
              32.33467
            ],
            [
              74.27946,
              32.30599
            ],
            [
              74.00516,
              31.61761
            ],
            [
              73.90154,
              31.6609
            ],
            [
              73.6891,
              31.80702
            ],
            [
              74.2417,
              32.31776
            ]
          ]
        ]
      },
      "properties": {
        "kind": "band",
        "source_id": "src_007",
        "hour_from": 2,
        "hour_to": 4,
        "risk": 0.72,
        "pm25_delta_ugm3": 106.7
      }
    },
    {
      "type": "Feature",
      "geometry": {
        "type": "Polygon",
        "coordinates": [
          [
            [
              74.15231,
              32.32509
            ],
            [
              74.36909,
              32.31878
            ],
            [
              74.53402,
              32.2844
            ],
            [
              74.63346,
              32.24751
            ],
            [
              74.76748,
              32.21647
            ],
            [
              74.52764,
              31.46942
            ],
            [
              74.39678,
              31.51061
            ],
            [
              74.21479,
              31.58233
            ],
            [
              74.16678,
              31.59872
            ],
            [
              74.13136,
              31.59865
            ],
            [
              74.15231,
              32.32509
            ]
          ]
        ]
      },
      "properties": {
        "kind": "band",
        "source_id": "src_007",
        "hour_from": 4,
        "hour_to": 8,
        "risk": 0.67,
        "pm25_delta_ugm3": 91.9
      }
    },
    {
      "type": "Feature",
      "geometry": {
        "type": "Polygon",
        "coordinates": [
          [
            [
              74.79114,
              32.21039
            ],
            [
              74.91118,
              32.17636
            ],
            [
              74.96758,
              32.1601
            ],
            [
              75.18278,
              32.05835
            ],
            [
              75.22283,
              32.02759
            ],
            [
              75.28988,
              31.95803
            ],
            [
              75.38755,
              31.75537
            ],
            [
              75.37186,
              31.80706
            ],
            [
              75.32129,
              31.87619
            ],
            [
              75.21266,
              31.94642
            ],
            [
              75.07022,
              31.97645
            ],
            [
              75.06995,
              31.97574
            ],
            [
              75.19037,
              31.97421
            ],
            [
              75.27346,
              31.96521
            ],
            [
              75.36248,
              31.94894
            ],
            [
              75.33402,
              31.95277
            ],
            [
              75.37861,
              31.94886
            ],
            [
              75.21772,
              31.06595
            ],
            [
              75.17419,
              31.07572
            ],
            [
              75.05891,
              31.10627
            ],
            [
              75.05738,
              31.1095
            ],
            [
              75.04597,
              31.11402
            ],
            [
              75.06196,
              31.11335
            ],
            [
              74.94464,
              31.12743
            ],
            [
              74.70251,
              31.21725
            ],
            [
              74.53131,
              31.37015
            ],
            [
              74.4489,
              31.52557
            ],
            [
              74.42282,
              31.65475
            ],
            [
              74.48618,
              31.50678
            ],
            [
              74.50248,
              31.49609
            ],
            [
              74.52319,
              31.48436
            ],
            [
              74.65667,
              31.41186
            ],
            [
              74.5905,
              31.44102
            ],
            [
              74.50415,
              31.47544
            ],
            [
              74.79114,
              32.21039
            ]
          ]
        ]
      },
      "properties": {
        "kind": "band",
        "source_id": "src_007",
        "hour_from": 8,
        "hour_to": 24,
        "risk": 0.57,
        "pm25_delta_ugm3": 55.7
      }
    },
    {
      "type": "Feature",
      "geometry": {
        "type": "LineString",
        "coordinates": [
          [
            74.73969,
            31.72629
          ],
          [
            74.81148,
            31.71025
          ],
          [
            74.87574,
            31.70076
          ],
          [
            75.02615,
            31.66268
          ],
          [
            75.16664,
            31.66239
          ],
          [
            75.30119,
            31.60238
          ],
          [
            75.4153,
            31.50637
          ],
          [
            75.52182,
            31.4312
          ],
          [
            75.61176,
            31.38527
          ],
          [
            75.68858,
            31.34105
          ],
          [
            75.7529,
            31.31241
          ],
          [
            75.78328,
            31.30212
          ],
          [
            75.80656,
            31.29422
          ],
          [
            75.81643,
            31.27559
          ],
          [
            75.8269,
            31.27368
          ],
          [
            75.83269,
            31.27101
          ],
          [
            75.84586,
            31.27093
          ],
          [
            75.87355,
            31.26949
          ],
          [
            75.91023,
            31.26546
          ],
          [
            75.94209,
            31.25167
          ],
          [
            75.97906,
            31.24016
          ],
          [
            76.02539,
            31.22591
          ],
          [
            76.07752,
            31.2003
          ],
          [
            76.16657,
            31.12855
          ],
          [
            76.2495,
            31.06467
          ]
        ]
      },
      "properties": {
        "kind": "centerline",
        "source_id": "src_005",
        "points_eta_hours": [
          0,
          1,
          2,
          3,
          4,
          5,
          6,
          7,
          8,
          9,
          10,
          11,
          12,
          13,
          14,
          15,
          16,
          17,
          18,
          19,
          20,
          21,
          22,
          23,
          24
        ]
      }
    },
    {
      "type": "Feature",
      "geometry": {
        "type": "Polygon",
        "coordinates": [
          [
            [
              74.85134,
              32.14928
            ],
            [
              74.89123,
              32.16752
            ],
            [
              74.95755,
              32.16982
            ],
            [
              74.79475,
              31.23165
            ],
            [
              74.7325,
              31.25293
            ],
            [
              74.62905,
              31.3032
            ],
            [
              74.85134,
              32.14928
            ]
          ]
        ]
      },
      "properties": {
        "kind": "band",
        "source_id": "src_005",
        "hour_from": 0,
        "hour_to": 2,
        "risk": 0.72,
        "pm25_delta_ugm3": 109.1
      }
    },
    {
      "type": "Feature",
      "geometry": {
        "type": "Polygon",
        "coordinates": [
          [
            [
              75.0132,
              32.16036
            ],
            [
              75.02735,
              32.146
            ],
            [
              75.16785,
              32.15341
            ],
            [
              75.16543,
              31.17136
            ],
            [
              75.02497,
              31.17936
            ],
            [
              74.73963,
              31.24102
            ],
            [
              75.0132,
              32.16036
            ]
          ]
        ]
      },
      "properties": {
        "kind": "band",
        "source_id": "src_005",
        "hour_from": 2,
        "hour_to": 4,
        "risk": 0.67,
        "pm25_delta_ugm3": 98.7
      }
    },
    {
      "type": "Feature",
      "geometry": {
        "type": "Polygon",
        "coordinates": [
          [
            [
              75.40276,
              32.11062
            ],
            [
              75.67904,
              31.98276
            ],
            [
              75.75764,
              31.91767
            ],
            [
              75.79478,
              31.88477
            ],
            [
              75.88741,
              31.84351
            ],
            [
              75.33879,
              30.92644
            ],
            [
              75.25149,
              30.97706
            ],
            [
              75.07597,
              31.09417
            ],
            [
              74.92642,
              31.2209
            ],
            [
              74.93279,
              31.21372
            ],
            [
              75.40276,
              32.11062
            ]
          ]
        ]
      },
      "properties": {
        "kind": "band",
        "source_id": "src_005",
        "hour_from": 4,
        "hour_to": 8,
        "risk": 0.62,
        "pm25_delta_ugm3": 85.0
      }
    },
    {
      "type": "Feature",
      "geometry": {
        "type": "Polygon",
        "coordinates": [
          [
            [
              75.91406,
              31.83115
            ],
            [
              75.93741,
              31.81567
            ],
            [
              75.95094,
              31.809
            ],
            [
              75.98328,
              31.80283
            ],
            [
              76.35928,
              31.54278
            ],
            [
              75.92991,
              31.80405
            ],
            [
              76.09364,
              31.76474
            ],
            [
              75.83657,
              31.81593
            ],
            [
              75.87935,
              31.81877
            ],
            [
              75.94449,
              31.8183
            ],
            [
              76.16983,
              31.77506
            ],
            [
              76.13764,
              31.78515
            ],
            [
              76.17343,
              31.77735
            ],
            [
              76.31853,
              31.73298
            ],
            [
              76.49644,
              31.64228
            ],
            [
              76.57594,
              31.58064
            ],
            [
              76.66073,
              31.51911
            ],
            [
              75.84218,
              30.60894
            ],
            [
              75.76108,
              30.67517
            ],
            [
              75.6625,
              30.75697
            ],
            [
              75.73538,
              30.71817
            ],
            [
              75.78689,
              30.70267
            ],
            [
              75.74875,
              30.7179
            ],
            [
              75.65342,
              30.75536
            ],
            [
              75.80343,
              30.72064
            ],
            [
              75.81276,
              30.72308
            ],
            [
              75.82885,
              30.72609
            ],
            [
              75.56293,
              30.78207
            ],
            [
              75.70423,
              30.74703
            ],
            [
              75.25676,
              31.04331
            ],
            [
              75.58539,
              30.80111
            ],
            [
              75.55695,
              30.81552
            ],
            [
              75.44225,
              30.86596
            ],
            [
              75.31232,
              30.93868
            ],
            [
              75.91406,
              31.83115
            ]
          ]
        ]
      },
      "properties": {
        "kind": "band",
        "source_id": "src_005",
        "hour_from": 8,
        "hour_to": 24,
        "risk": 0.53,
        "pm25_delta_ugm3": 51.5
      }
    },
    {
      "type": "Feature",
      "geometry": {
        "type": "LineString",
        "coordinates": [
          [
            73.92486,
            31.48539
          ],
          [
            73.96282,
            31.45664
          ],
          [
            74.08239,
            31.43968
          ],
          [
            74.15789,
            31.4188
          ],
          [
            74.24933,
            31.3908
          ],
          [
            74.35713,
            31.37936
          ],
          [
            74.46557,
            31.36942
          ],
          [
            74.59957,
            31.34747
          ],
          [
            74.72323,
            31.31264
          ],
          [
            74.81282,
            31.2665
          ],
          [
            74.85518,
            31.25401
          ],
          [
            74.86875,
            31.24181
          ],
          [
            74.87199,
            31.21561
          ],
          [
            74.87654,
            31.19879
          ],
          [
            74.88185,
            31.17862
          ],
          [
            74.8868,
            31.14474
          ],
          [
            74.89916,
            31.10193
          ],
          [
            74.91352,
            31.06444
          ],
          [
            74.94455,
            31.03489
          ],
          [
            74.98433,
            31.03282
          ],
          [
            75.0147,
            31.01236
          ],
          [
            75.02971,
            30.98347
          ],
          [
            75.04199,
            30.94798
          ],
          [
            75.0588,
            30.91871
          ],
          [
            75.09259,
            30.89704
          ]
        ]
      },
      "properties": {
        "kind": "centerline",
        "source_id": "src_006",
        "points_eta_hours": [
          0,
          1,
          2,
          3,
          4,
          5,
          6,
          7,
          8,
          9,
          10,
          11,
          12,
          13,
          14,
          15,
          16,
          17,
          18,
          19,
          20,
          21,
          22,
          23,
          24
        ]
      }
    },
    {
      "type": "Feature",
      "geometry": {
        "type": "Polygon",
        "coordinates": [
          [
            [
              74.06518,
              31.64303
            ],
            [
              74.00021,
              31.68102
            ],
            [
              74.12175,
              31.67586
            ],
            [
              74.04323,
              31.20349
            ],
            [
              73.9256,
              31.23225
            ],
            [
              73.78501,
              31.3276
            ],
            [
              74.06518,
              31.64303
            ]
          ]
        ]
      },
      "properties": {
        "kind": "band",
        "source_id": "src_006",
        "hour_from": 0,
        "hour_to": 2,
        "risk": 0.45,
        "pm25_delta_ugm3": 69.1
      }
    },
    {
      "type": "Feature",
      "geometry": {
        "type": "Polygon",
        "coordinates": [
          [
            [
              74.15712,
              31.66958
            ],
            [
              74.24308,
              31.65561
            ],
            [
              74.33715,
              31.63499
            ],
            [
              74.16196,
              31.14656
            ],
            [
              74.07314,
              31.18192
            ],
            [
              74.00803,
              31.20975
            ],
            [
              74.15712,
              31.66958
            ]
          ]
        ]
      },
      "properties": {
        "kind": "band",
        "source_id": "src_006",
        "hour_from": 2,
        "hour_to": 4,
        "risk": 0.42,
        "pm25_delta_ugm3": 62.5
      }
    },
    {
      "type": "Feature",
      "geometry": {
        "type": "Polygon",
        "coordinates": [
          [
            [
              74.281,
              31.64478
            ],
            [
              74.38523,
              31.64046
            ],
            [
              74.51652,
              31.63422
            ],
            [
              74.68679,
              31.61117
            ],
            [
              74.8121,
              31.5814
            ],
            [
              74.63487,
              31.04382
            ],
            [
              74.51283,
              31.08371
            ],
            [
              74.4149,
              31.1046
            ],
            [
              74.32917,
              31.11825
            ],
            [
              74.21783,
              31.13682
            ],
            [
              74.281,
              31.64478
            ]
          ]
        ]
      },
      "properties": {
        "kind": "band",
        "source_id": "src_006",
        "hour_from": 4,
        "hour_to": 8,
        "risk": 0.39,
        "pm25_delta_ugm3": 53.8
      }
    },
    {
      "type": "Feature",
      "geometry": {
        "type": "Polygon",
        "coordinates": [
          [
            [
              74.87326,
              31.56082
            ],
            [
              74.9072,
              31.53903
            ],
            [
              75.08155,
              31.46865
            ],
            [
              75.20933,
              31.27735
            ],
            [
              75.20808,
              31.29294
            ],
            [
              75.2178,
              31.27515
            ],
            [
              75.23538,
              31.22227
            ],
            [
              75.23432,
              31.2301
            ],
            [
              75.2409,
              31.2134
            ],
            [
              75.16892,
              31.29341
            ],
            [
              74.96404,
              31.35441
            ],
            [
              75.19572,
              31.30077
            ],
            [
              75.35334,
              31.16246
            ],
            [
              75.39357,
              31.0908
            ],
            [
              75.37909,
              31.11332
            ],
            [
              75.27076,
              31.20127
            ],
            [
              75.30638,
              31.1821
            ],
            [
              74.88008,
              30.61163
            ],
            [
              74.8481,
              30.6358
            ],
            [
              74.70605,
              30.78178
            ],
            [
              74.66666,
              30.87513
            ],
            [
              74.67712,
              30.86138
            ],
            [
              74.77411,
              30.76453
            ],
            [
              74.9252,
              30.71538
            ],
            [
              74.65935,
              30.83496
            ],
            [
              74.55823,
              30.98956
            ],
            [
              74.5399,
              31.05845
            ],
            [
              74.52865,
              31.134
            ],
            [
              74.53584,
              31.12153
            ],
            [
              74.53645,
              31.13741
            ],
            [
              74.52843,
              31.20537
            ],
            [
              74.62983,
              31.03897
            ],
            [
              74.71899,
              30.99391
            ],
            [
              74.57399,
              31.06428
            ],
            [
              74.87326,
              31.56082
            ]
          ]
        ]
      },
      "properties": {
        "kind": "band",
        "source_id": "src_006",
        "hour_from": 8,
        "hour_to": 24,
        "risk": 0.33,
        "pm25_delta_ugm3": 32.6
      }
    },
    {
      "type": "Feature",
      "geometry": {
        "type": "LineString",
        "coordinates": [
          [
            74.10418,
            31.8505
          ],
          [
            74.2271,
            31.83627
          ],
          [
            74.32229,
            31.82593
          ],
          [
            74.41045,
            31.78225
          ],
          [
            74.51084,
            31.75522
          ],
          [
            74.64444,
            31.741
          ],
          [
            74.76179,
            31.68078
          ],
          [
            74.88562,
            31.62542
          ],
          [
            75.01886,
            31.57582
          ],
          [
            75.12558,
            31.52849
          ],
          [
            75.20286,
            31.49511
          ],
          [
            75.24905,
            31.47076
          ],
          [
            75.26167,
            31.45223
          ],
          [
            75.26206,
            31.45112
          ],
          [
            75.26258,
            31.44902
          ],
          [
            75.27876,
            31.43685
          ],
          [
            75.30449,
            31.40631
          ],
          [
            75.33697,
            31.38624
          ],
          [
            75.37378,
            31.37924
          ],
          [
            75.41279,
            31.37891
          ],
          [
            75.45544,
            31.37725
          ],
          [
            75.49922,
            31.36718
          ],
          [
            75.54058,
            31.34556
          ],
          [
            75.58622,
            31.30903
          ],
          [
            75.64073,
            31.26779
          ]
        ]
      },
      "properties": {
        "kind": "centerline",
        "source_id": "src_008",
        "points_eta_hours": [
          0,
          1,
          2,
          3,
          4,
          5,
          6,
          7,
          8,
          9,
          10,
          11,
          12,
          13,
          14,
          15,
          16,
          17,
          18,
          19,
          20,
          21,
          22,
          23,
          24
        ]
      }
    },
    {
      "type": "Feature",
      "geometry": {
        "type": "Polygon",
        "coordinates": [
          [
            [
              74.11661,
              31.94162
            ],
            [
              74.24245,
              31.95607
            ],
            [
              74.33915,
              31.95758
            ],
            [
              74.30548,
              31.69427
            ],
            [
              74.2118,
              31.71646
            ],
            [
              74.09177,
              31.75938
            ],
            [
              74.11661,
              31.94162
            ]
          ]
        ]
      },
      "properties": {
        "kind": "band",
        "source_id": "src_008",
        "hour_from": 0,
        "hour_to": 2,
        "risk": 0.24,
        "pm25_delta_ugm3": 36.5
      }
    },
    {
      "type": "Feature",
      "geometry": {
        "type": "Polygon",
        "coordinates": [
          [
            [
              74.39157,
              31.94457
            ],
            [
              74.45382,
              31.91895
            ],
            [
              74.55655,
              31.89937
            ],
            [
              74.46526,
              31.61106
            ],
            [
              74.36722,
              31.64553
            ],
            [
              74.25318,
              31.70725
            ],
            [
              74.39157,
              31.94457
            ]
          ]
        ]
      },
      "properties": {
        "kind": "band",
        "source_id": "src_008",
        "hour_from": 2,
        "hour_to": 4,
        "risk": 0.22,
        "pm25_delta_ugm3": 33.1
      }
    },
    {
      "type": "Feature",
      "geometry": {
        "type": "Polygon",
        "coordinates": [
          [
            [
              74.52944,
              31.90367
            ],
            [
              74.72837,
              31.87984
            ],
            [
              74.83971,
              31.82885
            ],
            [
              74.95452,
              31.78272
            ],
            [
              75.08988,
              31.73805
            ],
            [
              74.94808,
              31.41355
            ],
            [
              74.81695,
              31.46808
            ],
            [
              74.68411,
              31.53266
            ],
            [
              74.56077,
              31.60212
            ],
            [
              74.49229,
              31.60677
            ],
            [
              74.52944,
              31.90367
            ]
          ]
        ]
      },
      "properties": {
        "kind": "band",
        "source_id": "src_008",
        "hour_from": 4,
        "hour_to": 8,
        "risk": 0.21,
        "pm25_delta_ugm3": 28.4
      }
    },
    {
      "type": "Feature",
      "geometry": {
        "type": "Polygon",
        "coordinates": [
          [
            [
              75.10139,
              31.73405
            ],
            [
              75.20854,
              31.69194
            ],
            [
              75.30299,
              31.65672
            ],
            [
              75.43063,
              31.57601
            ],
            [
              75.47341,
              31.51577
            ],
            [
              75.48474,
              31.49747
            ],
            [
              75.40331,
              31.60831
            ],
            [
              75.46113,
              31.56765
            ],
            [
              75.43212,
              31.58221
            ],
            [
              75.38314,
              31.59291
            ],
            [
              75.37591,
              31.59306
            ],
            [
              75.42265,
              31.59592
            ],
            [
              75.51345,
              31.59206
            ],
            [
              75.62082,
              31.56529
            ],
            [
              75.70677,
              31.52246
            ],
            [
              75.74878,
              31.49215
            ],
            [
              75.80533,
              31.45327
            ],
            [
              75.47679,
              31.0821
            ],
            [
              75.42429,
              31.12572
            ],
            [
              75.37502,
              31.16845
            ],
            [
              75.37814,
              31.16897
            ],
            [
              75.39769,
              31.16242
            ],
            [
              75.40297,
              31.1619
            ],
            [
              75.37166,
              31.16542
            ],
            [
              75.29099,
              31.17956
            ],
            [
              75.17734,
              31.23028
            ],
            [
              75.0969,
              31.30579
            ],
            [
              75.12232,
              31.28957
            ],
            [
              75.0396,
              31.40438
            ],
            [
              75.05022,
              31.38835
            ],
            [
              75.06787,
              31.36526
            ],
            [
              75.10308,
              31.33343
            ],
            [
              75.0429,
              31.36498
            ],
            [
              74.93661,
              31.41753
            ],
            [
              75.10139,
              31.73405
            ]
          ]
        ]
      },
      "properties": {
        "kind": "band",
        "source_id": "src_008",
        "hour_from": 8,
        "hour_to": 24,
        "risk": 0.2,
        "pm25_delta_ugm3": 17.3
      }
    },
    {
      "type": "Feature",
      "geometry": {
        "type": "LineString",
        "coordinates": [
          [
            73.53458,
            30.13987
          ],
          [
            73.56163,
            30.13725
          ],
          [
            73.58434,
            30.13516
          ],
          [
            73.6051,
            30.09846
          ],
          [
            73.63305,
            30.05619
          ],
          [
            73.67839,
            29.99318
          ],
          [
            73.74227,
            29.92778
          ],
          [
            73.86173,
            29.91581
          ],
          [
            73.97449,
            29.91307
          ],
          [
            74.0787,
            29.91262
          ],
          [
            74.16819,
            29.90109
          ],
          [
            74.26647,
            29.88374
          ],
          [
            74.35291,
            29.88155
          ],
          [
            74.41104,
            29.86923
          ],
          [
            74.46833,
            29.86805
          ],
          [
            74.52881,
            29.86199
          ],
          [
            74.56262,
            29.83165
          ],
          [
            74.56781,
            29.78208
          ],
          [
            74.59126,
            29.76232
          ],
          [
            74.62413,
            29.75513
          ],
          [
            74.6841,
            29.75358
          ],
          [
            74.74237,
            29.74965
          ],
          [
            74.80297,
            29.73656
          ],
          [
            74.84861,
            29.72129
          ],
          [
            74.8821,
            29.69808
          ]
        ]
      },
      "properties": {
        "kind": "centerline",
        "source_id": "src_003",
        "points_eta_hours": [
          0,
          1,
          2,
          3,
          4,
          5,
          6,
          7,
          8,
          9,
          10,
          11,
          12,
          13,
          14,
          15,
          16,
          17,
          18,
          19,
          20,
          21,
          22,
          23,
          24
        ]
      }
    },
    {
      "type": "Feature",
      "geometry": {
        "type": "Polygon",
        "coordinates": [
          [
            [
              73.53859,
              30.17568
            ],
            [
              73.5685,
              30.20173
            ],
            [
              73.59247,
              30.21151
            ],
            [
              73.57622,
              30.05881
            ],
            [
              73.55478,
              30.07277
            ],
            [
              73.53057,
              30.10406
            ],
            [
              73.53859,
              30.17568
            ]
          ]
        ]
      },
      "properties": {
        "kind": "band",
        "source_id": "src_003",
        "hour_from": 0,
        "hour_to": 2,
        "risk": 0.2,
        "pm25_delta_ugm3": 26.3
      }
    },
    {
      "type": "Feature",
      "geometry": {
        "type": "Polygon",
        "coordinates": [
          [
            [
              73.66153,
              30.17289
            ],
            [
              73.68789,
              30.14576
            ],
            [
              73.72324,
              30.10774
            ],
            [
              73.54295,
              30.00458
            ],
            [
              73.52239,
              30.05111
            ],
            [
              73.50721,
              30.09739
            ],
            [
              73.66153,
              30.17289
            ]
          ]
        ]
      },
      "properties": {
        "kind": "band",
        "source_id": "src_003",
        "hour_from": 2,
        "hour_to": 4,
        "risk": 0.2,
        "pm25_delta_ugm3": 23.8
      }
    },
    {
      "type": "Feature",
      "geometry": {
        "type": "Polygon",
        "coordinates": [
          [
            [
              73.7208,
              30.11079
            ],
            [
              73.76132,
              30.06325
            ],
            [
              73.75452,
              30.03371
            ],
            [
              73.86488,
              30.02789
            ],
            [
              73.97778,
              30.03041
            ],
            [
              73.97121,
              29.79574
            ],
            [
              73.85859,
              29.80373
            ],
            [
              73.73004,
              29.82184
            ],
            [
              73.59558,
              29.92306
            ],
            [
              73.54539,
              30.00152
            ],
            [
              73.7208,
              30.11079
            ]
          ]
        ]
      },
      "properties": {
        "kind": "band",
        "source_id": "src_003",
        "hour_from": 4,
        "hour_to": 8,
        "risk": 0.2,
        "pm25_delta_ugm3": 20.5
      }
    },
    {
      "type": "Feature",
      "geometry": {
        "type": "Polygon",
        "coordinates": [
          [
            [
              73.97508,
              30.03044
            ],
            [
              74.09675,
              30.03392
            ],
            [
              74.19369,
              30.02613
            ],
            [
              74.27031,
              30.01512
            ],
            [
              74.38539,
              30.01426
            ],
            [
              74.41436,
              30.00894
            ],
            [
              74.48488,
              30.01099
            ],
            [
              74.64248,
              29.97167
            ],
            [
              74.73587,
              29.84726
            ],
            [
              74.68275,
              29.90028
            ],
            [
              74.63024,
              29.91673
            ],
            [
              74.62894,
              29.91649
            ],
            [
              74.69689,
              29.91788
            ],
            [
              74.78325,
              29.91371
            ],
            [
              74.86557,
              29.89866
            ],
            [
              74.96287,
              29.86425
            ],
            [
              74.99829,
              29.84348
            ],
            [
              74.76625,
              29.55257
            ],
            [
              74.73467,
              29.57822
            ],
            [
              74.74058,
              29.57443
            ],
            [
              74.70162,
              29.58557
            ],
            [
              74.67135,
              29.58928
            ],
            [
              74.61934,
              29.59377
            ],
            [
              74.5524,
              29.6079
            ],
            [
              74.45315,
              29.66379
            ],
            [
              74.38943,
              29.81581
            ],
            [
              74.41539,
              29.75222
            ],
            [
              74.45183,
              29.72512
            ],
            [
              74.40773,
              29.72953
            ],
            [
              74.32052,
              29.74883
            ],
            [
              74.26263,
              29.75236
            ],
            [
              74.14276,
              29.77604
            ],
            [
              74.06069,
              29.79131
            ],
            [
              73.9739,
              29.7957
            ],
            [
              73.97508,
              30.03044
            ]
          ]
        ]
      },
      "properties": {
        "kind": "band",
        "source_id": "src_003",
        "hour_from": 8,
        "hour_to": 24,
        "risk": 0.2,
        "pm25_delta_ugm3": 15.0
      }
    },
    {
      "type": "Feature",
      "geometry": {
        "type": "LineString",
        "coordinates": [
          [
            77.30969,
            28.28338
          ],
          [
            77.36621,
            28.27692
          ],
          [
            77.42411,
            28.26166
          ],
          [
            77.48591,
            28.23904
          ],
          [
            77.52432,
            28.20661
          ],
          [
            77.56672,
            28.16312
          ],
          [
            77.59297,
            28.12064
          ],
          [
            77.6464,
            28.11637
          ],
          [
            77.70253,
            28.08556
          ],
          [
            77.76888,
            28.0264
          ],
          [
            77.81578,
            27.94448
          ],
          [
            77.83516,
            27.86155
          ],
          [
            77.88131,
            27.81466
          ],
          [
            77.91993,
            27.78979
          ],
          [
            77.98941,
            27.77964
          ],
          [
            78.06205,
            27.76703
          ],
          [
            78.11962,
            27.75538
          ],
          [
            78.2227,
            27.73412
          ],
          [
            78.34368,
            27.73386
          ],
          [
            78.43675,
            27.7085
          ],
          [
            78.49952,
            27.68156
          ],
          [
            78.55562,
            27.66594
          ],
          [
            78.60623,
            27.65196
          ],
          [
            78.65503,
            27.65026
          ],
          [
            78.7115,
            27.64214
          ]
        ]
      },
      "properties": {
        "kind": "centerline",
        "source_id": "src_001",
        "points_eta_hours": [
          0,
          1,
          2,
          3,
          4,
          5,
          6,
          7,
          8,
          9,
          10,
          11,
          12,
          13,
          14,
          15,
          16,
          17,
          18,
          19,
          20,
          21,
          22,
          23,
          24
        ]
      }
    },
    {
      "type": "Feature",
      "geometry": {
        "type": "Polygon",
        "coordinates": [
          [
            [
              77.31817,
              28.3486
            ],
            [
              77.39354,
              28.36823
            ],
            [
              77.45489,
              28.3645
            ],
            [
              77.39339,
              28.15882
            ],
            [
              77.33892,
              28.1856
            ],
            [
              77.30122,
              28.21815
            ],
            [
              77.31817,
              28.3486
            ]
          ]
        ]
      },
      "properties": {
        "kind": "band",
        "source_id": "src_001",
        "hour_from": 0,
        "hour_to": 2,
        "risk": 0.2,
        "pm25_delta_ugm3": 15.0
      }
    },
    {
      "type": "Feature",
      "geometry": {
        "type": "Polygon",
        "coordinates": [
          [
            [
              77.46566,
              28.36152
            ],
            [
              77.57055,
              28.32726
            ],
            [
              77.61459,
              28.30072
            ],
            [
              77.4342,
              28.11244
            ],
            [
              77.40141,
              28.15076
            ],
            [
              77.38264,
              28.16179
            ],
            [
              77.46566,
              28.36152
            ]
          ]
        ]
      },
      "properties": {
        "kind": "band",
        "source_id": "src_001",
        "hour_from": 2,
        "hour_to": 4,
        "risk": 0.2,
        "pm25_delta_ugm3": 15.0
      }
    },
    {
      "type": "Feature",
      "geometry": {
        "type": "Polygon",
        "coordinates": [
          [
            [
              77.6245,
              28.29258
            ],
            [
              77.69224,
              28.2314
            ],
            [
              77.60529,
              28.25635
            ],
            [
              77.72385,
              28.24064
            ],
            [
              77.78283,
              28.21444
            ],
            [
              77.62243,
              27.95663
            ],
            [
              77.56913,
              27.99205
            ],
            [
              77.58069,
              27.98493
            ],
            [
              77.44136,
              28.09472
            ],
            [
              77.42429,
              28.12057
            ],
            [
              77.6245,
              28.29258
            ]
          ]
        ]
      },
      "properties": {
        "kind": "band",
        "source_id": "src_001",
        "hour_from": 4,
        "hour_to": 8,
        "risk": 0.2,
        "pm25_delta_ugm3": 15.0
      }
    },
    {
      "type": "Feature",
      "geometry": {
        "type": "Polygon",
        "coordinates": [
          [
            [
              77.81357,
              28.19527
            ],
            [
              77.9184,
              28.10184
            ],
            [
              77.98852,
              27.98001
            ],
            [
              77.96516,
              27.97449
            ],
            [
              77.98265,
              27.95363
            ],
            [
              77.94766,
              27.95742
            ],
            [
              78.02295,
              27.95041
            ],
            [
              78.1018,
              27.94062
            ],
            [
              78.16096,
              27.93241
            ],
            [
              78.22315,
              27.91842
            ],
            [
              78.39954,
              27.91499
            ],
            [
              78.52201,
              27.88407
            ],
            [
              78.55847,
              27.86878
            ],
            [
              78.61513,
              27.85632
            ],
            [
              78.6141,
              27.85247
            ],
            [
              78.68785,
              27.85185
            ],
            [
              78.74479,
              27.84666
            ],
            [
              78.67833,
              27.43761
            ],
            [
              78.62234,
              27.44867
            ],
            [
              78.59839,
              27.45144
            ],
            [
              78.49632,
              27.47554
            ],
            [
              78.44076,
              27.49432
            ],
            [
              78.35177,
              27.53286
            ],
            [
              78.288,
              27.5527
            ],
            [
              78.22226,
              27.54981
            ],
            [
              78.07841,
              27.57834
            ],
            [
              78.02242,
              27.59343
            ],
            [
              77.95596,
              27.60886
            ],
            [
              77.89228,
              27.62216
            ],
            [
              77.78022,
              27.67561
            ],
            [
              77.70542,
              27.74849
            ],
            [
              77.64316,
              27.90874
            ],
            [
              77.61956,
              27.9508
            ],
            [
              77.59172,
              27.97576
            ],
            [
              77.81357,
              28.19527
            ]
          ]
        ]
      },
      "properties": {
        "kind": "band",
        "source_id": "src_001",
        "hour_from": 8,
        "hour_to": 24,
        "risk": 0.2,
        "pm25_delta_ugm3": 15.0
      }
    },
    {
      "type": "Feature",
      "geometry": {
        "type": "LineString",
        "coordinates": [
          [
            74.17735,
            29.52763
          ],
          [
            74.26946,
            29.48665
          ],
          [
            74.34901,
            29.4349
          ],
          [
            74.42231,
            29.36409
          ],
          [
            74.49181,
            29.32806
          ],
          [
            74.57975,
            29.30278
          ],
          [
            74.67726,
            29.2839
          ],
          [
            74.81343,
            29.28373
          ],
          [
            74.93921,
            29.2641
          ],
          [
            75.06359,
            29.23136
          ],
          [
            75.17595,
            29.19781
          ],
          [
            75.29343,
            29.1574
          ],
          [
            75.3905,
            29.12829
          ],
          [
            75.45016,
            29.1241
          ],
          [
            75.50552,
            29.11588
          ],
          [
            75.55323,
            29.08989
          ],
          [
            75.60154,
            29.06533
          ],
          [
            75.63028,
            29.04225
          ],
          [
            75.64465,
            29.03233
          ],
          [
            75.68307,
            29.01889
          ],
          [
            75.73101,
            29.00006
          ],
          [
            75.78437,
            28.95535
          ],
          [
            75.83908,
            28.91401
          ],
          [
            75.87207,
            28.85881
          ],
          [
            75.89346,
            28.81866
          ]
        ]
      },
      "properties": {
        "kind": "centerline",
        "source_id": "src_009",
        "points_eta_hours": [
          0,
          1,
          2,
          3,
          4,
          5,
          6,
          7,
          8,
          9,
          10,
          11,
          12,
          13,
          14,
          15,
          16,
          17,
          18,
          19,
          20,
          21,
          22,
          23,
          24
        ]
      }
    },
    {
      "type": "Feature",
      "geometry": {
        "type": "Polygon",
        "coordinates": [
          [
            [
              74.19416,
              29.5605
            ],
            [
              74.31005,
              29.54092
            ],
            [
              74.39705,
              29.49915
            ],
            [
              74.30103,
              29.37062
            ],
            [
              74.22892,
              29.43237
            ],
            [
              74.16055,
              29.49476
            ],
            [
              74.19416,
              29.5605
            ]
          ]
        ]
      },
      "properties": {
        "kind": "band",
        "source_id": "src_009",
        "hour_from": 0,
        "hour_to": 2,
        "risk": 0.2,
        "pm25_delta_ugm3": 15.0
      }
    },
    {
      "type": "Feature",
      "geometry": {
        "type": "Polygon",
        "coordinates": [
          [
            [
              74.4102,
              29.49003
            ],
            [
              74.46767,
              29.44027
            ],
            [
              74.54123,
              29.41108
            ],
            [
              74.44247,
              29.24502
            ],
            [
              74.37702,
              29.2879
            ],
            [
              74.28788,
              29.37974
            ],
            [
              74.4102,
              29.49003
            ]
          ]
        ]
      },
      "properties": {
        "kind": "band",
        "source_id": "src_009",
        "hour_from": 2,
        "hour_to": 4,
        "risk": 0.2,
        "pm25_delta_ugm3": 15.0
      }
    },
    {
      "type": "Feature",
      "geometry": {
        "type": "Polygon",
        "coordinates": [
          [
            [
              74.52147,
              29.41794
            ],
            [
              74.60164,
              29.40127
            ],
            [
              74.67741,
              29.39036
            ],
            [
              74.83327,
              29.3945
            ],
            [
              74.95998,
              29.38007
            ],
            [
              74.91848,
              29.14813
            ],
            [
              74.79363,
              29.17296
            ],
            [
              74.67711,
              29.17743
            ],
            [
              74.5579,
              29.20428
            ],
            [
              74.4622,
              29.23817
            ],
            [
              74.52147,
              29.41794
            ]
          ]
        ]
      },
      "properties": {
        "kind": "band",
        "source_id": "src_009",
        "hour_from": 4,
        "hour_to": 8,
        "risk": 0.2,
        "pm25_delta_ugm3": 15.0
      }
    },
    {
      "type": "Feature",
      "geometry": {
        "type": "Polygon",
        "coordinates": [
          [
            [
              74.9735,
              29.3776
            ],
            [
              75.10373,
              29.34855
            ],
            [
              75.22332,
              29.31788
            ],
            [
              75.3367,
              29.28328
            ],
            [
              75.40142,
              29.26362
            ],
            [
              75.47368,
              29.26231
            ],
            [
              75.58426,
              29.24201
            ],
            [
              75.62978,
              29.2213
            ],
            [
              75.70993,
              29.18307
            ],
            [
              75.73083,
              29.16949
            ],
            [
              75.70444,
              29.18152
            ],
            [
              75.75064,
              29.16912
            ],
            [
              75.85209,
              29.12622
            ],
            [
              75.90016,
              29.08922
            ],
            [
              76.00686,
              29.00161
            ],
            [
              76.04753,
              28.94051
            ],
            [
              76.07185,
              28.90176
            ],
            [
              75.71536,
              28.73533
            ],
            [
              75.69689,
              28.77687
            ],
            [
              75.67158,
              28.82621
            ],
            [
              75.66888,
              28.82137
            ],
            [
              75.61023,
              28.87379
            ],
            [
              75.61569,
              28.86863
            ],
            [
              75.58503,
              28.88312
            ],
            [
              75.52997,
              28.91493
            ],
            [
              75.4934,
              28.94751
            ],
            [
              75.47688,
              28.95844
            ],
            [
              75.42697,
              28.9897
            ],
            [
              75.4267,
              28.98587
            ],
            [
              75.37962,
              28.99296
            ],
            [
              75.25025,
              29.03151
            ],
            [
              75.12869,
              29.07773
            ],
            [
              75.02354,
              29.11416
            ],
            [
              74.905,
              29.15059
            ],
            [
              74.9735,
              29.3776
            ]
          ]
        ]
      },
      "properties": {
        "kind": "band",
        "source_id": "src_009",
        "hour_from": 8,
        "hour_to": 24,
        "risk": 0.2,
        "pm25_delta_ugm3": 15.0
      }
    },
    {
      "type": "Feature",
      "geometry": {
        "type": "LineString",
        "coordinates": [
          [
            74.48954,
            29.51869
          ],
          [
            74.5201,
            29.4681
          ],
          [
            74.57305,
            29.41166
          ],
          [
            74.63693,
            29.33844
          ],
          [
            74.70349,
            29.30051
          ],
          [
            74.78047,
            29.27811
          ],
          [
            74.87005,
            29.26059
          ],
          [
            75.00313,
            29.25483
          ],
          [
            75.12759,
            29.2284
          ],
          [
            75.25641,
            29.19667
          ],
          [
            75.39195,
            29.1608
          ],
          [
            75.5084,
            29.11555
          ],
          [
            75.60023,
            29.08226
          ],
          [
            75.64743,
            29.06409
          ],
          [
            75.67948,
            29.04493
          ],
          [
            75.71806,
            29.03219
          ],
          [
            75.74357,
            29.01071
          ],
          [
            75.75676,
            28.97469
          ],
          [
            75.77797,
            28.93545
          ],
          [
            75.80272,
            28.91071
          ],
          [
            75.8447,
            28.88344
          ],
          [
            75.88992,
            28.85295
          ],
          [
            75.93719,
            28.81105
          ],
          [
            75.96572,
            28.7568
          ],
          [
            75.99242,
            28.71302
          ]
        ]
      },
      "properties": {
        "kind": "centerline",
        "source_id": "src_002",
        "points_eta_hours": [
          0,
          1,
          2,
          3,
          4,
          5,
          6,
          7,
          8,
          9,
          10,
          11,
          12,
          13,
          14,
          15,
          16,
          17,
          18,
          19,
          20,
          21,
          22,
          23,
          24
        ]
      }
    },
    {
      "type": "Feature",
      "geometry": {
        "type": "Polygon",
        "coordinates": [
          [
            [
              74.53821,
              29.54425
            ],
            [
              74.58567,
              29.52161
            ],
            [
              74.64858,
              29.47332
            ],
            [
              74.4976,
              29.34995
            ],
            [
              74.45459,
              29.41456
            ],
            [
              74.4409,
              29.49311
            ],
            [
              74.53821,
              29.54425
            ]
          ]
        ]
      },
      "properties": {
        "kind": "band",
        "source_id": "src_002",
        "hour_from": 0,
        "hour_to": 2,
        "risk": 0.2,
        "pm25_delta_ugm3": 15.0
      }
    },
    {
      "type": "Feature",
      "geometry": {
        "type": "Polygon",
        "coordinates": [
          [
            [
              74.65108,
              29.47091
            ],
            [
              74.69337,
              29.42471
            ],
            [
              74.76429,
              29.39349
            ],
            [
              74.6428,
              29.20751
            ],
            [
              74.58058,
              29.25214
            ],
            [
              74.4951,
              29.35236
            ],
            [
              74.65108,
              29.47091
            ]
          ]
        ]
      },
      "properties": {
        "kind": "band",
        "source_id": "src_002",
        "hour_from": 2,
        "hour_to": 4,
        "risk": 0.2,
        "pm25_delta_ugm3": 15.0
      }
    },
    {
      "type": "Feature",
      "geometry": {
        "type": "Polygon",
        "coordinates": [
          [
            [
              74.73782,
              29.40327
            ],
            [
              74.80555,
              29.3898
            ],
            [
              74.876,
              29.38043
            ],
            [
              75.03307,
              29.37769
            ],
            [
              75.15877,
              29.3564
            ],
            [
              75.09647,
              29.10039
            ],
            [
              74.97325,
              29.13197
            ],
            [
              74.86412,
              29.14075
            ],
            [
              74.75546,
              29.16641
            ],
            [
              74.66923,
              29.19775
            ],
            [
              74.73782,
              29.40327
            ]
          ]
        ]
      },
      "properties": {
        "kind": "band",
        "source_id": "src_002",
        "hour_from": 4,
        "hour_to": 8,
        "risk": 0.2,
        "pm25_delta_ugm3": 15.0
      }
    },
    {
      "type": "Feature",
      "geometry": {
        "type": "Polygon",
        "coordinates": [
          [
            [
              75.1635,
              29.35546
            ],
            [
              75.29625,
              29.32794
            ],
            [
              75.45029,
              29.29172
            ],
            [
              75.565,
              29.25177
            ],
            [
              75.66163,
              29.22144
            ],
            [
              75.7375,
              29.19557
            ],
            [
              75.73591,
              29.19414
            ],
            [
              75.83674,
              29.15524
            ],
            [
              75.92038,
              29.06718
            ],
            [
              75.92593,
              29.05454
            ],
            [
              75.91672,
              29.05671
            ],
            [
              75.91172,
              29.05734
            ],
            [
              75.95862,
              29.03111
            ],
            [
              76.02743,
              28.98858
            ],
            [
              76.12365,
              28.89678
            ],
            [
              76.14847,
              28.85429
            ],
            [
              76.17799,
              28.81205
            ],
            [
              75.80721,
              28.61373
            ],
            [
              75.78332,
              28.65905
            ],
            [
              75.75104,
              28.72506
            ],
            [
              75.75276,
              28.71718
            ],
            [
              75.7311,
              28.73568
            ],
            [
              75.69403,
              28.76399
            ],
            [
              75.63955,
              28.81404
            ],
            [
              75.58784,
              28.89463
            ],
            [
              75.56695,
              28.95402
            ],
            [
              75.59966,
              28.90904
            ],
            [
              75.62321,
              28.8957
            ],
            [
              75.55759,
              28.93255
            ],
            [
              75.53901,
              28.94305
            ],
            [
              75.45194,
              28.9793
            ],
            [
              75.33376,
              29.02986
            ],
            [
              75.21666,
              29.06538
            ],
            [
              75.09176,
              29.10133
            ],
            [
              75.1635,
              29.35546
            ]
          ]
        ]
      },
      "properties": {
        "kind": "band",
        "source_id": "src_002",
        "hour_from": 8,
        "hour_to": 24,
        "risk": 0.2,
        "pm25_delta_ugm3": 15.0
      }
    },
    {
      "type": "Feature",
      "geometry": {
        "type": "LineString",
        "coordinates": [
          [
            74.49818,
            31.35165
          ],
          [
            74.56023,
            31.34222
          ],
          [
            74.64816,
            31.31312
          ],
          [
            74.78232,
            31.30618
          ],
          [
            74.9117,
            31.30314
          ],
          [
            75.0358,
            31.24859
          ],
          [
            75.13975,
            31.20236
          ],
          [
            75.2682,
            31.16333
          ],
          [
            75.35055,
            31.10277
          ],
          [
            75.4126,
            31.04258
          ],
          [
            75.46569,
            31.00499
          ],
          [
            75.50022,
            31.00204
          ],
          [
            75.50918,
            31.00001
          ],
          [
            75.50933,
            30.98236
          ],
          [
            75.52783,
            30.9785
          ],
          [
            75.56391,
            30.97204
          ],
          [
            75.58105,
            30.96442
          ],
          [
            75.59627,
            30.96395
          ],
          [
            75.6218,
            30.96055
          ],
          [
            75.64525,
            30.94665
          ],
          [
            75.65988,
            30.91843
          ],
          [
            75.685,
            30.88049
          ],
          [
            75.72374,
            30.84104
          ],
          [
            75.7893,
            30.8024
          ],
          [
            75.88397,
            30.7474
          ]
        ]
      },
      "properties": {
        "kind": "centerline",
        "source_id": "src_010",
        "points_eta_hours": [
          0,
          1,
          2,
          3,
          4,
          5,
          6,
          7,
          8,
          9,
          10,
          11,
          12,
          13,
          14,
          15,
          16,
          17,
          18,
          19,
          20,
          21,
          22,
          23,
          24
        ]
      }
    },
    {
      "type": "Feature",
      "geometry": {
        "type": "Polygon",
        "coordinates": [
          [
            [
              74.50672,
              31.39966
            ],
            [
              74.5887,
              31.41565
            ],
            [
              74.68102,
              31.39786
            ],
            [
              74.61536,
              31.22838
            ],
            [
              74.5318,
              31.2688
            ],
            [
              74.48964,
              31.30364
            ],
            [
              74.50672,
              31.39966
            ]
          ]
        ]
      },
      "properties": {
        "kind": "band",
        "source_id": "src_010",
        "hour_from": 0,
        "hour_to": 2,
        "risk": 0.2,
        "pm25_delta_ugm3": 15.0
      }
    },
    {
      "type": "Feature",
      "geometry": {
        "type": "Polygon",
        "coordinates": [
          [
            [
              74.65356,
              31.40226
            ],
            [
              74.78504,
              31.40457
            ],
            [
              74.91463,
              31.40923
            ],
            [
              74.90878,
              31.19705
            ],
            [
              74.77962,
              31.2078
            ],
            [
              74.64277,
              31.22398
            ],
            [
              74.65356,
              31.40226
            ]
          ]
        ]
      },
      "properties": {
        "kind": "band",
        "source_id": "src_010",
        "hour_from": 2,
        "hour_to": 4,
        "risk": 0.2,
        "pm25_delta_ugm3": 15.0
      }
    },
    {
      "type": "Feature",
      "geometry": {
        "type": "Polygon",
        "coordinates": [
          [
            [
              74.96173,
              31.40028
            ],
            [
              75.08952,
              31.35175
            ],
            [
              75.18027,
              31.31627
            ],
            [
              75.35463,
              31.26377
            ],
            [
              75.44057,
              31.20744
            ],
            [
              75.26073,
              30.99804
            ],
            [
              75.18195,
              31.06284
            ],
            [
              75.09934,
              31.08844
            ],
            [
              74.98219,
              31.14541
            ],
            [
              74.86177,
              31.20598
            ],
            [
              74.96173,
              31.40028
            ]
          ]
        ]
      },
      "properties": {
        "kind": "band",
        "source_id": "src_010",
        "hour_from": 4,
        "hour_to": 8,
        "risk": 0.2,
        "pm25_delta_ugm3": 15.0
      }
    },
    {
      "type": "Feature",
      "geometry": {
        "type": "Polygon",
        "coordinates": [
          [
            [
              75.45634,
              31.19601
            ],
            [
              75.50368,
              31.15265
            ],
            [
              75.47958,
              31.14405
            ],
            [
              75.5375,
              31.14247
            ],
            [
              75.68214,
              31.00116
            ],
            [
              75.54569,
              31.13147
            ],
            [
              75.56003,
              31.13229
            ],
            [
              75.63985,
              31.11824
            ],
            [
              75.58698,
              31.12802
            ],
            [
              75.62204,
              31.1297
            ],
            [
              75.72342,
              31.10732
            ],
            [
              75.82554,
              31.02659
            ],
            [
              75.83232,
              31.0162
            ],
            [
              75.83523,
              31.00682
            ],
            [
              75.83247,
              30.99912
            ],
            [
              75.8986,
              30.96368
            ],
            [
              75.99495,
              30.91125
            ],
            [
              75.77337,
              30.58346
            ],
            [
              75.68036,
              30.64102
            ],
            [
              75.61537,
              30.68287
            ],
            [
              75.53518,
              30.75399
            ],
            [
              75.48779,
              30.82042
            ],
            [
              75.46527,
              30.86646
            ],
            [
              75.52049,
              30.81369
            ],
            [
              75.57058,
              30.79819
            ],
            [
              75.57514,
              30.80082
            ],
            [
              75.48821,
              30.8258
            ],
            [
              75.49574,
              30.82471
            ],
            [
              75.47309,
              30.83325
            ],
            [
              75.33623,
              30.99862
            ],
            [
              75.46306,
              30.8616
            ],
            [
              75.45184,
              30.86593
            ],
            [
              75.32172,
              30.93245
            ],
            [
              75.24497,
              31.00945
            ],
            [
              75.45634,
              31.19601
            ]
          ]
        ]
      },
      "properties": {
        "kind": "band",
        "source_id": "src_010",
        "hour_from": 8,
        "hour_to": 24,
        "risk": 0.2,
        "pm25_delta_ugm3": 15.0
      }
    }
  ]
}