{
  "type": "FeatureCollection",
  "generated_at": "2026-10-08T14:52:16.643513Z",
  "forecast_start": "2026-10-07T18:00:00Z",
  "wind_generated_at": "2026-10-07T18:37:57.090632Z",
  "features": [
    {
      "type": "Feature",
      "geometry": {
        "type": "LineString",
        "coordinates": [
          [
            74.00381,
            30.77605
          ],
          [
            73.97992,
            30.78888
          ],
          [
            73.95536,
            30.78275
          ],
          [
            73.92992,
            30.7565
          ],
          [
            73.88037,
            30.73799
          ],
          [
            73.8435,
            30.73762
          ],
          [
            73.81314,
            30.74813
          ],
          [
            73.79694,
            30.76746
          ],
          [
            73.80192,
            30.7827
          ],
          [
            73.85016,
            30.77387
          ],
          [
            73.91747,
            30.75079
          ],
          [
            73.98592,
            30.72038
          ],
          [
            74.05274,
            30.68195
          ],
          [
            74.10644,
            30.64008
          ],
          [
            74.12516,
            30.6077
          ],
          [
            74.10806,
            30.5755
          ],
          [
            74.05774,
            30.53233
          ],
          [
            73.9703,
            30.50452
          ],
          [
            73.87319,
            30.48994
          ],
          [
            73.79561,
            30.47219
          ],
          [
            73.72087,
            30.44407
          ],
          [
            73.64369,
            30.44669
          ],
          [
            73.5758,
            30.47745
          ],
          [
            73.5176,
            30.50924
          ],
          [
            73.47072,
            30.54534
          ]
        ]
      },
      "properties": {
        "kind": "centerline",
        "source_id": "src_004",
        "points_eta_hours": [
          0,
          1,
          2,
          3,
          4,
          5,
          6,
          7,
          8,
          9,
          10,
          11,
          12,
          13,
          14,
          15,
          16,
          17,
          18,
          19,
          20,
          21,
          22,
          23,
          24
        ]
      }
    },
    {
      "type": "Feature",
      "geometry": {
        "type": "Polygon",
        "coordinates": [
          [
            [
              73.67927,
              30.25349
            ],
            [
              74.15407,
              30.18584
            ],
            [
              74.13283,
              30.16814
            ],
            [
              73.77562,
              31.39711
            ],
            [
              73.80357,
              31.39168
            ],
            [
              74.3319,
              31.29779
            ],
            [
              73.67927,
              30.25349
            ]
          ]
        ]
      },
      "properties": {
        "kind": "band",
        "source_id": "src_004",
        "hour_from": 0,
        "hour_to": 2,
        "risk": 0.98,
        "pm25_delta_ugm3": 150.5
      }
    },
    {
      "type": "Feature",
      "geometry": {
        "type": "Polygon",
        "coordinates": [
          [
            [
              74.48231,
              30.34087
            ],
            [
              74.18991,
              30.15435
            ],
            [
              74.14341,
              30.12862
            ],
            [
              73.61399,
              31.34683
            ],
            [
              73.66667,
              31.35812
            ],
            [
              73.42356,
              31.22247
            ],
            [
              74.48231,
              30.34087
            ]
          ]
        ]
      },
      "properties": {
        "kind": "band",
        "source_id": "src_004",
        "hour_from": 2,
        "hour_to": 4,
        "risk": 0.92,
        "pm25_delta_ugm3": 136.2
      }
    },
    {
      "type": "Feature",
      "geometry": {
        "type": "Polygon",
        "coordinates": [
          [
            [
              73.88791,
              30.08781
            ],
            [
              73.595,
              30.11654
            ],
            [
              73.2244,
              30.32079
            ],
            [
              73.05555,
              30.97324
            ],
            [
              73.05458,
              30.99008
            ],
            [
              74.54601,
              30.57106
            ],
            [
              74.53512,
              30.55749
            ],
            [
              74.40711,
              31.17279
            ],
            [
              74.09521,
              31.35822
            ],
            [
              73.87273,
              31.38817
            ],
            [
              73.88791,
              30.08781
            ]
          ]
        ]
      },
      "properties": {
        "kind": "band",
        "source_id": "src_004",
        "hour_from": 4,
        "hour_to": 8,
        "risk": 0.86,
        "pm25_delta_ugm3": 117.2
      }
    },
    {
      "type": "Feature",
      "geometry": {
        "type": "Polygon",
        "coordinates": [
          [
            [
              73.94421,
              31.44565
            ],
            [
              74.1082,
              31.4159
            ],
            [
              74.24258,
              31.37516
            ],
            [
              74.38743,
              31.31626
            ],
            [
              74.55062,
              31.22697
            ],
            [
              74.80964,
              30.98686
            ],
            [
              74.84131,
              30.27714
            ],
            [
              74.63769,
              30.04006
            ],
            [
              74.3051,
              29.85763
            ],
            [
              74.09201,
              29.80104
            ],
            [
              74.05686,
              29.79306
            ],
            [
              74.08697,
              29.79975
            ],
            [
              73.69269,
              29.72313
            ],
            [
              73.29919,
              29.78628
            ],
            [
              73.17371,
              29.83824
            ],
            [
              73.00312,
              29.92937
            ],
            [
              72.95398,
              29.96311
            ],
            [
              73.99368,
              31.12551
            ],
            [
              74.03823,
              31.08706
            ],
            [
              73.9832,
              31.1154
            ],
            [
              73.99289,
              31.10619
            ],
            [
              73.74947,
              31.16501
            ],
            [
              73.5002,
              31.14397
            ],
            [
              73.68686,
              31.18655
            ],
            [
              73.84682,
              31.20788
            ],
            [
              73.80691,
              31.20656
            ],
            [
              73.57256,
              31.10878
            ],
            [
              73.40415,
              30.93431
            ],
            [
              73.40828,
              30.28955
            ],
            [
              73.56046,
              30.13506
            ],
            [
              73.58934,
              30.12327
            ],
            [
              73.59656,
              30.12562
            ],
            [
              73.59554,
              30.13133
            ],
            [
              73.66158,
              30.1196
            ],
            [
              73.94421,
              31.44565
            ]
          ]
        ]
      },
      "properties": {
        "kind": "band",
        "source_id": "src_004",
        "hour_from": 8,
        "hour_to": 24,
        "risk": 0.73,
        "pm25_delta_ugm3": 71.1
      }
    },
    {
      "type": "Feature",
      "geometry": {
        "type": "LineString",
        "coordinates": [
          [
            73.82585,
            32.10145
          ],
          [
            73.79429,
            32.09278
          ],
          [
            73.75517,
            32.09116
          ],
          [
            73.69834,
            32.08881
          ],
          [
            73.63498,
            32.09441
          ],
          [
            73.59873,
            32.10226
          ],
          [
            73.56735,
            32.10156
          ],
          [
            73.53179,
            32.10695
          ],
          [
            73.51024,
            32.11316
          ],
          [
            73.5025,
            32.11349
          ],
          [
            73.49878,
            32.1125
          ],
          [
            73.49729,
            32.11361
          ],
          [
            73.4922,
            32.11543
          ],
          [
            73.47856,
            32.10947
          ],
          [
            73.44958,
            32.10756
          ],
          [
            73.42125,
            32.10749
          ],
          [
            73.39154,
            32.10375
          ],
          [
            73.34638,
            32.09756
          ],
          [
            73.28396,
            32.08671
          ],
          [
            73.22679,
            32.07139
          ],
          [
            73.17036,
            32.06504
          ],
          [
            73.11531,
            32.05869
          ],
          [
            73.06269,
            32.04569
          ],
          [
            73.01012,
            32.03004
          ],
          [
            72.96053,
            32.00991
          ]
        ]
      },
      "properties": {
        "kind": "centerline",
        "source_id": "src_007",
        "points_eta_hours": [
          0,
          1,
          2,
          3,
          4,
          5,
          6,
          7,
          8,
          9,
          10,
          11,
          12,
          13,
          14,
          15,
          16,
          17,
          18,
          19,
          20,
          21,
          22,
          23,
          24
        ]
      }
    },
    {
      "type": "Feature",
      "geometry": {
        "type": "Polygon",
        "coordinates": [
          [
            [
              73.92113,
              31.80656
            ],
            [
              73.81063,
              31.75852
            ],
            [
              73.77209,
              31.74499
            ],
            [
              73.73812,
              32.43733
            ],
            [
              73.77784,
              32.42704
            ],
            [
              73.72995,
              32.39627
            ],
            [
              73.92113,
              31.80656
            ]
          ]
        ]
      },
      "properties": {
        "kind": "band",
        "source_id": "src_007",
        "hour_from": 0,
        "hour_to": 2,
        "risk": 0.78,
        "pm25_delta_ugm3": 118.0
      }
    },
    {
      "type": "Feature",
      "geometry": {
        "type": "Polygon",
        "coordinates": [
          [
            [
              73.77197,
              31.74498
            ],
            [
              73.66152,
              31.73457
            ],
            [
              73.59736,
              31.73249
            ],
            [
              73.67289,
              32.45632
            ],
            [
              73.73544,
              32.44304
            ],
            [
              73.73824,
              32.43733
            ],
            [
              73.77197,
              31.74498
            ]
          ]
        ]
      },
      "properties": {
        "kind": "band",
        "source_id": "src_007",
        "hour_from": 2,
        "hour_to": 4,
        "risk": 0.72,
        "pm25_delta_ugm3": 106.7
      }
    },
    {
      "type": "Feature",
      "geometry": {
        "type": "Polygon",
        "coordinates": [
          [
            [
              73.54453,
              31.73929
            ],
            [
              73.60855,
              31.73224
            ],
            [
              73.501,
              31.72953
            ],
            [
              73.40743,
              31.73992
            ],
            [
              73.38417,
              31.74107
            ],
            [
              73.63735,
              32.48512
            ],
            [
              73.65715,
              32.47386
            ],
            [
              73.63424,
              32.47354
            ],
            [
              73.58883,
              32.47229
            ],
            [
              73.72613,
              32.44947
            ],
            [
              73.54453,
              31.73929
            ]
          ]
        ]
      },
      "properties": {
        "kind": "band",
        "source_id": "src_007",
        "hour_from": 4,
        "hour_to": 8,
        "risk": 0.67,
        "pm25_delta_ugm3": 91.9
      }
    },
    {
      "type": "Feature",
      "geometry": {
        "type": "Polygon",
        "coordinates": [
          [
            [
              73.49115,
              31.72633
            ],
            [
              73.62093,
              31.73448
            ],
            [
              73.21959,
              31.7942
            ],
            [
              73.33871,
              31.73564
            ],
            [
              73.68306,
              31.74373
            ],
            [
              73.51015,
              31.70081
            ],
            [
              73.45068,
              31.69411
            ],
            [
              73.48251,
              31.69352
            ],
            [
              73.45877,
              31.68676
            ],
            [
              73.43181,
              31.67938
            ],
            [
              73.41407,
              31.67335
            ],
            [
              73.28345,
              31.64287
            ],
            [
              73.22882,
              31.63341
            ],
            [
              73.23862,
              31.63376
            ],
            [
              73.21037,
              31.62317
            ],
            [
              73.20606,
              31.61866
            ],
            [
              73.15773,
              31.59579
            ],
            [
              72.76154,
              32.42373
            ],
            [
              72.81241,
              32.4411
            ],
            [
              72.91363,
              32.46803
            ],
            [
              72.99085,
              32.4835
            ],
            [
              73.11135,
              32.49663
            ],
            [
              73.16961,
              32.49988
            ],
            [
              73.15266,
              32.49993
            ],
            [
              73.26016,
              32.51568
            ],
            [
              73.32369,
              32.52071
            ],
            [
              73.35943,
              32.52144
            ],
            [
              73.44846,
              32.52101
            ],
            [
              73.44668,
              32.51811
            ],
            [
              73.29978,
              32.48684
            ],
            [
              73.6572,
              32.49138
            ],
            [
              73.77993,
              32.43018
            ],
            [
              73.38309,
              32.49238
            ],
            [
              73.52949,
              32.49999
            ],
            [
              73.49115,
              31.72633
            ]
          ]
        ]
      },
      "properties": {
        "kind": "band",
        "source_id": "src_007",
        "hour_from": 8,
        "hour_to": 24,
        "risk": 0.57,
        "pm25_delta_ugm3": 55.7
      }
    },
    {
      "type": "Feature",
      "geometry": {
        "type": "LineString",
        "coordinates": [
          [
            74.73969,
            31.72629
          ],
          [
            74.70442,
            31.71258
          ],
          [
            74.66481,
            31.70247
          ],
          [
            74.62109,
            31.69508
          ],
          [
            74.55134,
            31.68951
          ],
          [
            74.48079,
            31.6994
          ],
          [
            74.41982,
            31.72237
          ],
          [
            74.38697,
            31.75137
          ],
          [
            74.36874,
            31.77293
          ],
          [
            74.37416,
            31.77966
          ],
          [
            74.39582,
            31.76839
          ],
          [
            74.41972,
            31.7467
          ],
          [
            74.44345,
            31.71294
          ],
          [
            74.45557,
            31.67985
          ],
          [
            74.45205,
            31.65744
          ],
          [
            74.45055,
            31.64325
          ],
          [
            74.43014,
            31.62258
          ],
          [
            74.38365,
            31.59086
          ],
          [
            74.33406,
            31.56201
          ],
          [
            74.28365,
            31.53281
          ],
          [
            74.23206,
            31.51926
          ],
          [
            74.17962,
            31.51247
          ],
          [
            74.12201,
            31.493
          ],
          [
            74.06775,
            31.48744
          ],
          [
            74.00802,
            31.47012
          ]
        ]
      },
      "properties": {
        "kind": "centerline",
        "source_id": "src_005",
        "points_eta_hours": [
          0,
          1,
          2,
          3,
          4,
          5,
          6,
          7,
          8,
          9,
          10,
          11,
          12,
          13,
          14,
          15,
          16,
          17,
          18,
          19,
          20,
          21,
          22,
          23,
          24
        ]
      }
    },
    {
      "type": "Feature",
      "geometry": {
        "type": "Polygon",
        "coordinates": [
          [
            [
              74.92356,
              31.32215
            ],
            [
              74.83808,
              31.2646
            ],
            [
              74.8019,
              31.24294
            ],
            [
              74.52637,
              32.16186
            ],
            [
              74.56945,
              32.16041
            ],
            [
              74.55421,
              32.13017
            ],
            [
              74.92356,
              31.32215
            ]
          ]
        ]
      },
      "properties": {
        "kind": "band",
        "source_id": "src_005",
        "hour_from": 0,
        "hour_to": 2,
        "risk": 0.72,
        "pm25_delta_ugm3": 109.1
      }
    },
    {
      "type": "Feature",
      "geometry": {
        "type": "Polygon",
        "coordinates": [
          [
            [
              74.75723,
              31.2349
            ],
            [
              74.66611,
              31.21329
            ],
            [
              74.59708,
              31.20003
            ],
            [
              74.50512,
              32.17897
            ],
            [
              74.5756,
              32.17686
            ],
            [
              74.57146,
              32.16998
            ],
            [
              74.75723,
              31.2349
            ]
          ]
        ]
      },
      "properties": {
        "kind": "band",
        "source_id": "src_005",
        "hour_from": 2,
        "hour_to": 4,
        "risk": 0.67,
        "pm25_delta_ugm3": 98.7
      }
    },
    {
      "type": "Feature",
      "geometry": {
        "type": "Polygon",
        "coordinates": [
          [
            [
              74.47168,
              31.20321
            ],
            [
              74.27548,
              31.23339
            ],
            [
              74.02931,
              31.34396
            ],
            [
              73.93096,
              31.42151
            ],
            [
              73.90793,
              31.43966
            ],
            [
              74.83287,
              32.10453
            ],
            [
              74.84624,
              32.07959
            ],
            [
              74.81352,
              32.09959
            ],
            [
              74.68817,
              32.16507
            ],
            [
              74.63185,
              32.17576
            ],
            [
              74.47168,
              31.20321
            ]
          ]
        ]
      },
      "properties": {
        "kind": "band",
        "source_id": "src_005",
        "hour_from": 4,
        "hour_to": 8,
        "risk": 0.62,
        "pm25_delta_ugm3": 85.0
      }
    },
    {
      "type": "Feature",
      "geometry": {
        "type": "Polygon",
        "coordinates": [
          [
            [
              73.89531,
              32.0949
            ],
            [
              74.65777,
              32.24049
            ],
            [
              74.81205,
              32.15618
            ],
            [
              74.93032,
              32.04976
            ],
            [
              75.03309,
              31.89503
            ],
            [
              75.07865,
              31.59491
            ],
            [
              75.08387,
              31.59883
            ],
            [
              74.9042,
              31.25961
            ],
            [
              74.79146,
              31.1689
            ],
            [
              74.70799,
              31.11323
            ],
            [
              74.65919,
              31.08085
            ],
            [
              74.44929,
              30.99213
            ],
            [
              74.31625,
              30.96171
            ],
            [
              74.39074,
              30.97671
            ],
            [
              74.18956,
              30.92749
            ],
            [
              74.25326,
              30.93841
            ],
            [
              74.19445,
              30.91824
            ],
            [
              73.81937,
              32.02172
            ],
            [
              73.88005,
              32.03619
            ],
            [
              74.05363,
              32.05847
            ],
            [
              73.96605,
              32.04788
            ],
            [
              74.14686,
              32.07675
            ],
            [
              74.11609,
              32.07328
            ],
            [
              74.00556,
              32.04233
            ],
            [
              74.05597,
              32.06766
            ],
            [
              74.06528,
              32.07523
            ],
            [
              73.99315,
              32.02528
            ],
            [
              73.81946,
              31.71294
            ],
            [
              73.83138,
              31.76175
            ],
            [
              73.85614,
              31.52815
            ],
            [
              73.91247,
              31.44163
            ],
            [
              73.98307,
              31.37926
            ],
            [
              74.09336,
              31.31821
            ],
            [
              74.83888,
              31.44922
            ],
            [
              73.89531,
              32.0949
            ]
          ]
        ]
      },
      "properties": {
        "kind": "band",
        "source_id": "src_005",
        "hour_from": 8,
        "hour_to": 24,
        "risk": 0.53,
        "pm25_delta_ugm3": 51.5
      }
    },
    {
      "type": "Feature",
      "geometry": {
        "type": "LineString",
        "coordinates": [
          [
            73.92486,
            31.48539
          ],
          [
            73.8902,
            31.47021
          ],
          [
            73.84779,
            31.44865
          ],
          [
            73.79188,
            31.44095
          ],
          [
            73.72115,
            31.43857
          ],
          [
            73.67492,
            31.44231
          ],
          [
            73.63929,
            31.45571
          ],
          [
            73.60563,
            31.473
          ],
          [
            73.59274,
            31.48819
          ],
          [
            73.61305,
            31.50043
          ],
          [
            73.65199,
            31.5032
          ],
          [
            73.69296,
            31.49622
          ],
          [
            73.72184,
            31.48037
          ],
          [
            73.73545,
            31.46471
          ],
          [
            73.72828,
            31.45669
          ],
          [
            73.70483,
            31.45923
          ],
          [
            73.66149,
            31.46198
          ],
          [
            73.60202,
            31.45399
          ],
          [
            73.53403,
            31.4333
          ],
          [
            73.47019,
            31.42069
          ],
          [
            73.40596,
            31.41155
          ],
          [
            73.34261,
            31.39219
          ],
          [
            73.27844,
            31.37751
          ],
          [
            73.22357,
            31.37044
          ],
          [
            73.16733,
            31.35993
          ]
        ]
      },
      "properties": {
        "kind": "centerline",
        "source_id": "src_006",
        "points_eta_hours": [
          0,
          1,
          2,
          3,
          4,
          5,
          6,
          7,
          8,
          9,
          10,
          11,
          12,
          13,
          14,
          15,
          16,
          17,
          18,
          19,
          20,
          21,
          22,
          23,
          24
        ]
      }
    },
    {
      "type": "Feature",
      "geometry": {
        "type": "Polygon",
        "coordinates": [
          [
            [
              74.01774,
              31.30412
            ],
            [
              74.01039,
              31.26815
            ],
            [
              73.97427,
              31.23596
            ],
            [
              73.72074,
              31.66121
            ],
            [
              73.76948,
              31.67216
            ],
            [
              73.83162,
              31.6666
            ],
            [
              74.01774,
              31.30412
            ]
          ]
        ]
      },
      "properties": {
        "kind": "band",
        "source_id": "src_006",
        "hour_from": 0,
        "hour_to": 2,
        "risk": 0.45,
        "pm25_delta_ugm3": 69.1
      }
    },
    {
      "type": "Feature",
      "geometry": {
        "type": "Polygon",
        "coordinates": [
          [
            [
              73.88584,
              31.21232
            ],
            [
              73.80161,
              31.19339
            ],
            [
              73.73118,
              31.18331
            ],
            [
              73.71106,
              31.69383
            ],
            [
              73.78211,
              31.68851
            ],
            [
              73.80956,
              31.68496
            ],
            [
              73.88584,
              31.21232
            ]
          ]
        ]
      },
      "properties": {
        "kind": "band",
        "source_id": "src_006",
        "hour_from": 2,
        "hour_to": 4,
        "risk": 0.42,
        "pm25_delta_ugm3": 62.5
      }
    },
    {
      "type": "Feature",
      "geometry": {
        "type": "Polygon",
        "coordinates": [
          [
            [
              73.69706,
              31.18399
            ],
            [
              73.567,
              31.19685
            ],
            [
              73.49594,
              31.21693
            ],
            [
              73.36121,
              31.29543
            ],
            [
              73.34359,
              31.30721
            ],
            [
              73.84285,
              31.66868
            ],
            [
              73.85099,
              31.6501
            ],
            [
              73.78337,
              31.69434
            ],
            [
              73.7834,
              31.68768
            ],
            [
              73.74537,
              31.69314
            ],
            [
              73.69706,
              31.18399
            ]
          ]
        ]
      },
      "properties": {
        "kind": "band",
        "source_id": "src_006",
        "hour_from": 4,
        "hour_to": 8,
        "risk": 0.39,
        "pm25_delta_ugm3": 53.8
      }
    },
    {
      "type": "Feature",
      "geometry": {
        "type": "Polygon",
        "coordinates": [
          [
            [
              73.42323,
              31.72723
            ],
            [
              73.58938,
              31.78391
            ],
            [
              73.70905,
              31.78794
            ],
            [
              73.85892,
              31.75323
            ],
            [
              73.98575,
              31.67526
            ],
            [
              73.99854,
              31.26346
            ],
            [
              73.6899,
              31.15293
            ],
            [
              73.6819,
              31.15054
            ],
            [
              73.71022,
              31.1518
            ],
            [
              73.70968,
              31.15115
            ],
            [
              73.60646,
              31.1194
            ],
            [
              73.52338,
              31.10061
            ],
            [
              73.5174,
              31.0992
            ],
            [
              73.4285,
              31.07075
            ],
            [
              73.32804,
              31.04739
            ],
            [
              73.29562,
              31.04028
            ],
            [
              73.24001,
              31.02685
            ],
            [
              73.09414,
              31.69297
            ],
            [
              73.15101,
              31.70057
            ],
            [
              73.22849,
              31.70761
            ],
            [
              73.25613,
              31.71358
            ],
            [
              73.29378,
              31.7238
            ],
            [
              73.41664,
              31.74075
            ],
            [
              73.46112,
              31.74716
            ],
            [
              73.49366,
              31.75674
            ],
            [
              73.61244,
              31.77215
            ],
            [
              73.72791,
              31.76791
            ],
            [
              73.76691,
              31.76045
            ],
            [
              73.47122,
              31.66542
            ],
            [
              73.45903,
              31.28494
            ],
            [
              73.52791,
              31.239
            ],
            [
              73.59527,
              31.21843
            ],
            [
              73.63657,
              31.21696
            ],
            [
              73.76138,
              31.24893
            ],
            [
              73.42323,
              31.72723
            ]
          ]
        ]
      },
      "properties": {
        "kind": "band",
        "source_id": "src_006",
        "hour_from": 8,
        "hour_to": 24,
        "risk": 0.33,
        "pm25_delta_ugm3": 32.6
      }
    },
    {
      "type": "Feature",
      "geometry": {
        "type": "LineString",
        "coordinates": [
          [
            74.10418,
            31.8505
          ],
          [
            74.06611,
            31.84164
          ],
          [
            74.02364,
            31.83842
          ],
          [
            73.96095,
            31.83734
          ],
          [
            73.88854,
            31.83028
          ],
          [
            73.84661,
            31.83493
          ],
          [
            73.80907,
            31.84062
          ],
          [
            73.77098,
            31.8507
          ],
          [
            73.74844,
            31.8586
          ],
          [
            73.74814,
            31.86375
          ],
          [
            73.7654,
            31.85868
          ],
          [
            73.78175,
            31.84846
          ],
          [
            73.79391,
            31.8346
          ],
          [
            73.79237,
            31.81516
          ],
          [
            73.7729,
            31.80192
          ],
          [
            73.74406,
            31.7875
          ],
          [
            73.70537,
            31.76887
          ],
          [
            73.65203,
            31.74174
          ],
          [
            73.59341,
            31.71777
          ],
          [
            73.53604,
            31.69639
          ],
          [
            73.48084,
            31.68782
          ],
          [
            73.42447,
            31.67511
          ],
          [
            73.36905,
            31.65587
          ],
          [
            73.31753,
            31.64452
          ],
          [
            73.26693,
            31.63018
          ]
        ]
      },
      "properties": {
        "kind": "centerline",
        "source_id": "src_008",
        "points_eta_hours": [
          0,
          1,
          2,
          3,
          4,
          5,
          6,
          7,
          8,
          9,
          10,
          11,
          12,
          13,
          14,
          15,
          16,
          17,
          18,
          19,
          20,
          21,
          22,
          23,
          24
        ]
      }
    },
    {
      "type": "Feature",
      "geometry": {
        "type": "Polygon",
        "coordinates": [
          [
            [
              74.12864,
              31.76115
            ],
            [
              74.07684,
              31.72148
            ],
            [
              74.03543,
              31.70637
            ],
            [
              74.01182,
              31.97046
            ],
            [
              74.05536,
              31.9618
            ],
            [
              74.07968,
              31.93984
            ],
            [
              74.12864,
              31.76115
            ]
          ]
        ]
      },
      "properties": {
        "kind": "band",
        "source_id": "src_008",
        "hour_from": 0,
        "hour_to": 2,
        "risk": 0.24,
        "pm25_delta_ugm3": 36.5
      }
    },
    {
      "type": "Feature",
      "geometry": {
        "type": "Polygon",
        "coordinates": [
          [
            [
              74.02631,
              31.70601
            ],
            [
              73.97711,
              31.69643
            ],
            [
              73.90558,
              31.68169
            ],
            [
              73.87145,
              31.97886
            ],
            [
              73.94474,
              31.97825
            ],
            [
              74.02097,
              31.97083
            ],
            [
              74.02631,
              31.70601
            ]
          ]
        ]
      },
      "properties": {
        "kind": "band",
        "source_id": "src_008",
        "hour_from": 2,
        "hour_to": 4,
        "risk": 0.22,
        "pm25_delta_ugm3": 33.1
      }
    },
    {
      "type": "Feature",
      "geometry": {
        "type": "Polygon",
        "coordinates": [
          [
            [
              73.8692,
              31.6819
            ],
            [
              73.81913,
              31.6806
            ],
            [
              73.76028,
              31.68379
            ],
            [
              73.70574,
              31.69225
            ],
            [
              73.68115,
              31.69519
            ],
            [
              73.81596,
              32.02197
            ],
            [
              73.83645,
              32.00911
            ],
            [
              73.85802,
              31.99743
            ],
            [
              73.87418,
              31.98924
            ],
            [
              73.90794,
              31.97865
            ],
            [
              73.8692,
              31.6819
            ]
          ]
        ]
      },
      "properties": {
        "kind": "band",
        "source_id": "src_008",
        "hour_from": 4,
        "hour_to": 8,
        "risk": 0.21,
        "pm25_delta_ugm3": 28.4
      }
    },
    {
      "type": "Feature",
      "geometry": {
        "type": "Polygon",
        "coordinates": [
          [
            [
              73.54496,
              31.84856
            ],
            [
              73.80726,
              32.0346
            ],
            [
              73.87969,
              32.01356
            ],
            [
              73.94763,
              31.97177
            ],
            [
              74.01848,
              31.81928
            ],
            [
              73.92152,
              31.65344
            ],
            [
              73.8776,
              31.62351
            ],
            [
              73.84755,
              31.60438
            ],
            [
              73.81546,
              31.58446
            ],
            [
              73.74547,
              31.54697
            ],
            [
              73.68101,
              31.51737
            ],
            [
              73.57508,
              31.48178
            ],
            [
              73.5377,
              31.47278
            ],
            [
              73.51047,
              31.46385
            ],
            [
              73.4262,
              31.43445
            ],
            [
              73.39093,
              31.42345
            ],
            [
              73.34126,
              31.40626
            ],
            [
              73.19224,
              31.85406
            ],
            [
              73.24379,
              31.86554
            ],
            [
              73.31162,
              31.87726
            ],
            [
              73.33808,
              31.88632
            ],
            [
              73.42372,
              31.90284
            ],
            [
              73.49683,
              31.91099
            ],
            [
              73.50544,
              31.9181
            ],
            [
              73.55819,
              31.93644
            ],
            [
              73.59483,
              31.95318
            ],
            [
              73.64016,
              31.97053
            ],
            [
              73.66779,
              31.98024
            ],
            [
              73.66276,
              31.97674
            ],
            [
              73.56926,
              31.84952
            ],
            [
              73.61631,
              31.72493
            ],
            [
              73.6515,
              31.70371
            ],
            [
              73.68925,
              31.69286
            ],
            [
              73.95196,
              31.86831
            ],
            [
              73.54496,
              31.84856
            ]
          ]
        ]
      },
      "properties": {
        "kind": "band",
        "source_id": "src_008",
        "hour_from": 8,
        "hour_to": 24,
        "risk": 0.2,
        "pm25_delta_ugm3": 17.3
      }
    },
    {
      "type": "Feature",
      "geometry": {
        "type": "LineString",
        "coordinates": [
          [
            73.53458,
            30.13987
          ],
          [
            73.50102,
            30.16191
          ],
          [
            73.47366,
            30.18316
          ],
          [
            73.45066,
            30.2042
          ],
          [
            73.42756,
            30.2506
          ],
          [
            73.42066,
            30.27977
          ],
          [
            73.42997,
            30.30916
          ],
          [
            73.47203,
            30.34184
          ],
          [
            73.52293,
            30.37287
          ],
          [
            73.60212,
            30.38583
          ],
          [
            73.69335,
            30.38485
          ],
          [
            73.7884,
            30.3846
          ],
          [
            73.88151,
            30.37391
          ],
          [
            73.95535,
            30.36529
          ],
          [
            73.9838,
            30.36006
          ],
          [
            73.96474,
            30.34456
          ],
          [
            73.91463,
            30.32355
          ],
          [
            73.8495,
            30.31901
          ],
          [
            73.77575,
            30.31899
          ],
          [
            73.70258,
            30.2993
          ],
          [
            73.63446,
            30.27385
          ],
          [
            73.56433,
            30.27092
          ],
          [
            73.50955,
            30.2884
          ],
          [
            73.46425,
            30.32039
          ],
          [
            73.42622,
            30.36397
          ]
        ]
      },
      "properties": {
        "kind": "centerline",
        "source_id": "src_003",
        "points_eta_hours": [
          0,
          1,
          2,
          3,
          4,
          5,
          6,
          7,
          8,
          9,
          10,
          11,
          12,
          13,
          14,
          15,
          16,
          17,
          18,
          19,
          20,
          21,
          22,
          23,
          24
        ]
      }
    },
    {
      "type": "Feature",
      "geometry": {
        "type": "Polygon",
        "coordinates": [
          [
            [
              73.51175,
              30.1098
            ],
            [
              73.4551,
              30.11077
            ],
            [
              73.41928,
              30.1226
            ],
            [
              73.5281,
              30.2437
            ],
            [
              73.54698,
              30.21304
            ],
            [
              73.55742,
              30.16994
            ],
            [
              73.51175,
              30.1098
            ]
          ]
        ]
      },
      "properties": {
        "kind": "band",
        "source_id": "src_003",
        "hour_from": 0,
        "hour_to": 2,
        "risk": 0.2,
        "pm25_delta_ugm3": 26.3
      }
    },
    {
      "type": "Feature",
      "geometry": {
        "type": "Polygon",
        "coordinates": [
          [
            [
              73.41382,
              30.12658
            ],
            [
              73.3618,
              30.16593
            ],
            [
              73.33068,
              30.20889
            ],
            [
              73.52453,
              30.29225
            ],
            [
              73.53959,
              30.24242
            ],
            [
              73.53357,
              30.23971
            ],
            [
              73.41382,
              30.12658
            ]
          ]
        ]
      },
      "properties": {
        "kind": "band",
        "source_id": "src_003",
        "hour_from": 2,
        "hour_to": 4,
        "risk": 0.2,
        "pm25_delta_ugm3": 23.8
      }
    },
    {
      "type": "Feature",
      "geometry": {
        "type": "Polygon",
        "coordinates": [
          [
            [
              73.32223,
              30.22901
            ],
            [
              73.30987,
              30.31001
            ],
            [
              73.35424,
              30.39321
            ],
            [
              73.40434,
              30.43755
            ],
            [
              73.45205,
              30.47307
            ],
            [
              73.59367,
              30.27264
            ],
            [
              73.53958,
              30.24609
            ],
            [
              73.50556,
              30.22507
            ],
            [
              73.53138,
              30.24943
            ],
            [
              73.53295,
              30.27211
            ],
            [
              73.32223,
              30.22901
            ]
          ]
        ]
      },
      "properties": {
        "kind": "band",
        "source_id": "src_003",
        "hour_from": 4,
        "hour_to": 8,
        "risk": 0.2,
        "pm25_delta_ugm3": 20.5
      }
    },
    {
      "type": "Feature",
      "geometry": {
        "type": "Polygon",
        "coordinates": [
          [
            [
              73.50093,
              30.4887
            ],
            [
              73.60365,
              30.50813
            ],
            [
              73.69375,
              30.51183
            ],
            [
              73.80579,
              30.51516
            ],
            [
              73.89975,
              30.50866
            ],
            [
              73.98469,
              30.50272
            ],
            [
              74.08873,
              30.24857
            ],
            [
              74.03071,
              30.20858
            ],
            [
              73.92677,
              30.17283
            ],
            [
              73.84956,
              30.16439
            ],
            [
              73.82327,
              30.16634
            ],
            [
              73.76791,
              30.14808
            ],
            [
              73.64241,
              30.10932
            ],
            [
              73.50535,
              30.111
            ],
            [
              73.39549,
              30.14871
            ],
            [
              73.31255,
              30.20591
            ],
            [
              73.27188,
              30.24753
            ],
            [
              73.58094,
              30.48022
            ],
            [
              73.61629,
              30.4347
            ],
            [
              73.62393,
              30.42799
            ],
            [
              73.62351,
              30.43081
            ],
            [
              73.62649,
              30.43838
            ],
            [
              73.63705,
              30.45049
            ],
            [
              73.72809,
              30.47162
            ],
            [
              73.84945,
              30.47364
            ],
            [
              73.90246,
              30.47427
            ],
            [
              73.89859,
              30.48051
            ],
            [
              73.87864,
              30.47146
            ],
            [
              73.9261,
              30.22786
            ],
            [
              73.86331,
              30.23916
            ],
            [
              73.77105,
              30.25403
            ],
            [
              73.69296,
              30.25787
            ],
            [
              73.60059,
              30.26353
            ],
            [
              73.54489,
              30.25704
            ],
            [
              73.50093,
              30.4887
            ]
          ]
        ]
      },
      "properties": {
        "kind": "band",
        "source_id": "src_003",
        "hour_from": 8,
        "hour_to": 24,
        "risk": 0.2,
        "pm25_delta_ugm3": 15.0
      }
    },
    {
      "type": "Feature",
      "geometry": {
        "type": "LineString",
        "coordinates": [
          [
            77.30969,
            28.28338
          ],
          [
            77.24553,
            28.27424
          ],
          [
            77.17429,
            28.26625
          ],
          [
            77.10412,
            28.26497
          ],
          [
            77.04671,
            28.28017
          ],
          [
            77.00446,
            28.31311
          ],
          [
            76.98706,
            28.35317
          ],
          [
            76.9966,
            28.38256
          ],
          [
            77.02449,
            28.39714
          ],
          [
            77.07585,
            28.38595
          ],
          [
            77.1583,
            28.34246
          ],
          [
            77.25025,
            28.27666
          ],
          [
            77.34431,
            28.21109
          ],
          [
            77.38131,
            28.14818
          ],
          [
            77.36816,
            28.10991
          ],
          [
            77.33113,
            28.06921
          ],
          [
            77.29646,
            28.03361
          ],
          [
            77.26974,
            28.02378
          ],
          [
            77.24595,
            28.0527
          ],
          [
            77.2314,
            28.06948
          ],
          [
            77.20555,
            28.08805
          ],
          [
            77.18472,
            28.1114
          ],
          [
            77.17932,
            28.14461
          ],
          [
            77.18705,
            28.1836
          ],
          [
            77.20102,
            28.21967
          ]
        ]
      },
      "properties": {
        "kind": "centerline",
        "source_id": "src_001",
        "points_eta_hours": [
          0,
          1,
          2,
          3,
          4,
          5,
          6,
          7,
          8,
          9,
          10,
          11,
          12,
          13,
          14,
          15,
          16,
          17,
          18,
          19,
          20,
          21,
          22,
          23,
          24
        ]
      }
    },
    {
      "type": "Feature",
      "geometry": {
        "type": "Polygon",
        "coordinates": [
          [
            [
              77.3202,
              28.21839
            ],
            [
              77.25747,
              28.1804
            ],
            [
              77.18773,
              28.16057
            ],
            [
              77.16082,
              28.37194
            ],
            [
              77.23358,
              28.36808
            ],
            [
              77.29917,
              28.34837
            ],
            [
              77.3202,
              28.21839
            ]
          ]
        ]
      },
      "properties": {
        "kind": "band",
        "source_id": "src_001",
        "hour_from": 0,
        "hour_to": 2,
        "risk": 0.2,
        "pm25_delta_ugm3": 15.0
      }
    },
    {
      "type": "Feature",
      "geometry": {
        "type": "Polygon",
        "coordinates": [
          [
            [
              77.1765,
              28.15992
            ],
            [
              77.07058,
              28.15332
            ],
            [
              77.01093,
              28.16107
            ],
            [
              77.08257,
              28.39927
            ],
            [
              77.13773,
              28.37661
            ],
            [
              77.17207,
              28.37259
            ],
            [
              77.1765,
              28.15992
            ]
          ]
        ]
      },
      "properties": {
        "kind": "band",
        "source_id": "src_001",
        "hour_from": 2,
        "hour_to": 4,
        "risk": 0.2,
        "pm25_delta_ugm3": 15.0
      }
    },
    {
      "type": "Feature",
      "geometry": {
        "type": "Polygon",
        "coordinates": [
          [
            [
              76.96077,
              28.18298
            ],
            [
              76.8691,
              28.26123
            ],
            [
              76.83986,
              28.39515
            ],
            [
              76.92184,
              28.50819
            ],
            [
              76.94694,
              28.52743
            ],
            [
              77.10185,
              28.26681
            ],
            [
              77.07119,
              28.25689
            ],
            [
              77.13413,
              28.31103
            ],
            [
              77.13996,
              28.36487
            ],
            [
              77.13282,
              28.37731
            ],
            [
              76.96077,
              28.18298
            ]
          ]
        ]
      },
      "properties": {
        "kind": "band",
        "source_id": "src_001",
        "hour_from": 4,
        "hour_to": 8,
        "risk": 0.2,
        "pm25_delta_ugm3": 15.0
      }
    },
    {
      "type": "Feature",
      "geometry": {
        "type": "Polygon",
        "coordinates": [
          [
            [
              77.06012,
              28.54081
            ],
            [
              77.15656,
              28.52035
            ],
            [
              77.262,
              28.46982
            ],
            [
              77.35498,
              28.40878
            ],
            [
              77.50617,
              28.29482
            ],
            [
              77.56292,
              28.09301
            ],
            [
              77.51334,
              27.99317
            ],
            [
              77.47477,
              27.94558
            ],
            [
              77.36701,
              27.86393
            ],
            [
              77.10867,
              27.9066
            ],
            [
              77.08541,
              27.9296
            ],
            [
              77.10523,
              27.91423
            ],
            [
              77.04135,
              27.95858
            ],
            [
              76.96374,
              28.07953
            ],
            [
              76.95604,
              28.18342
            ],
            [
              76.97143,
              28.25699
            ],
            [
              76.98219,
              28.29413
            ],
            [
              77.41954,
              28.14487
            ],
            [
              77.40236,
              28.10987
            ],
            [
              77.40244,
              28.10545
            ],
            [
              77.40583,
              28.14291
            ],
            [
              77.37015,
              28.21732
            ],
            [
              77.35793,
              28.22462
            ],
            [
              77.40686,
              28.17561
            ],
            [
              77.43115,
              28.14078
            ],
            [
              77.22568,
              28.20325
            ],
            [
              77.18716,
              28.19269
            ],
            [
              77.22266,
              28.22648
            ],
            [
              77.19951,
              28.20312
            ],
            [
              77.18271,
              28.12718
            ],
            [
              77.14577,
              28.14446
            ],
            [
              77.05484,
              28.21502
            ],
            [
              76.99535,
              28.2515
            ],
            [
              76.98895,
              28.25346
            ],
            [
              77.06012,
              28.54081
            ]
          ]
        ]
      },
      "properties": {
        "kind": "band",
        "source_id": "src_001",
        "hour_from": 8,
        "hour_to": 24,
        "risk": 0.2,
        "pm25_delta_ugm3": 15.0
      }
    },
    {
      "type": "Feature",
      "geometry": {
        "type": "LineString",
        "coordinates": [
          [
            74.17735,
            29.52763
          ],
          [
            74.18976,
            29.53319
          ],
          [
            74.211,
            29.54836
          ],
          [
            74.23341,
            29.56976
          ],
          [
            74.26945,
            29.61309
          ],
          [
            74.29177,
            29.65569
          ],
          [
            74.34358,
            29.69684
          ],
          [
            74.42417,
            29.73131
          ],
          [
            74.52709,
            29.75168
          ],
          [
            74.64551,
            29.74795
          ],
          [
            74.76431,
            29.7336
          ],
          [
            74.88919,
            29.71122
          ],
          [
            75.01223,
            29.6877
          ],
          [
            75.11369,
            29.66737
          ],
          [
            75.16664,
            29.64602
          ],
          [
            75.18953,
            29.62068
          ],
          [
            75.19757,
            29.59892
          ],
          [
            75.19708,
            29.57885
          ],
          [
            75.17156,
            29.55027
          ],
          [
            75.13232,
            29.54387
          ],
          [
            75.08846,
            29.55734
          ],
          [
            75.04253,
            29.5728
          ],
          [
            74.98736,
            29.6103
          ],
          [
            74.93685,
            29.67418
          ],
          [
            74.9088,
            29.73285
          ]
        ]
      },
      "properties": {
        "kind": "centerline",
        "source_id": "src_009",
        "points_eta_hours": [
          0,
          1,
          2,
          3,
          4,
          5,
          6,
          7,
          8,
          9,
          10,
          11,
          12,
          13,
          14,
          15,
          16,
          17,
          18,
          19,
          20,
          21,
          22,
          23,
          24
        ]
      }
    },
    {
      "type": "Feature",
      "geometry": {
        "type": "Polygon",
        "coordinates": [
          [
            [
              74.16044,
              29.56046
            ],
            [
              74.14649,
              29.58588
            ],
            [
              74.15976,
              29.61075
            ],
            [
              74.26218,
              29.48595
            ],
            [
              74.23298,
              29.48048
            ],
            [
              74.19425,
              29.4948
            ],
            [
              74.16044,
              29.56046
            ]
          ]
        ]
      },
      "properties": {
        "kind": "band",
        "source_id": "src_009",
        "hour_from": 0,
        "hour_to": 2,
        "risk": 0.2,
        "pm25_delta_ugm3": 15.0
      }
    },
    {
      "type": "Feature",
      "geometry": {
        "type": "Polygon",
        "coordinates": [
          [
            [
              74.15008,
              29.60377
            ],
            [
              74.15751,
              29.62463
            ],
            [
              74.1867,
              29.67288
            ],
            [
              74.35211,
              29.55325
            ],
            [
              74.30922,
              29.51486
            ],
            [
              74.27186,
              29.49291
            ],
            [
              74.15008,
              29.60377
            ]
          ]
        ]
      },
      "properties": {
        "kind": "band",
        "source_id": "src_009",
        "hour_from": 2,
        "hour_to": 4,
        "risk": 0.2,
        "pm25_delta_ugm3": 15.0
      }
    },
    {
      "type": "Feature",
      "geometry": {
        "type": "Polygon",
        "coordinates": [
          [
            [
              74.17412,
              29.65647
            ],
            [
              74.21992,
              29.73423
            ],
            [
              74.29533,
              29.79472
            ],
            [
              74.39907,
              29.84128
            ],
            [
              74.50081,
              29.86681
            ],
            [
              74.55331,
              29.63654
            ],
            [
              74.44921,
              29.62132
            ],
            [
              74.39172,
              29.59894
            ],
            [
              74.36352,
              29.57711
            ],
            [
              74.3647,
              29.56965
            ],
            [
              74.17412,
              29.65647
            ]
          ]
        ]
      },
      "properties": {
        "kind": "band",
        "source_id": "src_009",
        "hour_from": 4,
        "hour_to": 8,
        "risk": 0.2,
        "pm25_delta_ugm3": 15.0
      }
    },
    {
      "type": "Feature",
      "geometry": {
        "type": "Polygon",
        "coordinates": [
          [
            [
              74.53135,
              29.86899
            ],
            [
              74.66243,
              29.86938
            ],
            [
              74.79014,
              29.85859
            ],
            [
              74.91763,
              29.8403
            ],
            [
              75.04295,
              29.82071
            ],
            [
              75.1739,
              29.79695
            ],
            [
              75.28943,
              29.74224
            ],
            [
              75.34869,
              29.67168
            ],
            [
              75.37127,
              29.59508
            ],
            [
              75.32956,
              29.4758
            ],
            [
              75.20077,
              29.39426
            ],
            [
              75.07794,
              29.38956
            ],
            [
              75.02818,
              29.40126
            ],
            [
              74.93418,
              29.43394
            ],
            [
              74.83328,
              29.50418
            ],
            [
              74.75632,
              29.59901
            ],
            [
              74.72509,
              29.6564
            ],
            [
              75.0928,
              29.80905
            ],
            [
              75.11765,
              29.7491
            ],
            [
              75.14177,
              29.71624
            ],
            [
              75.15117,
              29.71157
            ],
            [
              75.14893,
              29.71341
            ],
            [
              75.18688,
              29.69816
            ],
            [
              75.14226,
              29.70628
            ],
            [
              75.06432,
              29.68178
            ],
            [
              75.02386,
              29.60252
            ],
            [
              75.03053,
              29.56949
            ],
            [
              75.04409,
              29.54968
            ],
            [
              75.05363,
              29.53776
            ],
            [
              74.98159,
              29.55468
            ],
            [
              74.86081,
              29.58213
            ],
            [
              74.73855,
              29.60861
            ],
            [
              74.62864,
              29.62652
            ],
            [
              74.52284,
              29.63436
            ],
            [
              74.53135,
              29.86899
            ]
          ]
        ]
      },
      "properties": {
        "kind": "band",
        "source_id": "src_009",
        "hour_from": 8,
        "hour_to": 24,
        "risk": 0.2,
        "pm25_delta_ugm3": 15.0
      }
    },
    {
      "type": "Feature",
      "geometry": {
        "type": "LineString",
        "coordinates": [
          [
            74.48954,
            29.51869
          ],
          [
            74.5096,
            29.5267
          ],
          [
            74.52093,
            29.53805
          ],
          [
            74.53188,
            29.5555
          ],
          [
            74.55119,
            29.59335
          ],
          [
            74.55907,
            29.62841
          ],
          [
            74.59353,
            29.66789
          ],
          [
            74.65765,
            29.70001
          ],
          [
            74.74935,
            29.71634
          ],
          [
            74.86059,
            29.70758
          ],
          [
            74.98133,
            29.69052
          ],
          [
            75.10709,
            29.66059
          ],
          [
            75.21921,
            29.62637
          ],
          [
            75.30656,
            29.58631
          ],
          [
            75.33789,
            29.55976
          ],
          [
            75.35642,
            29.52548
          ],
          [
            75.37307,
            29.49916
          ],
          [
            75.37798,
            29.46199
          ],
          [
            75.35079,
            29.4312
          ],
          [
            75.31261,
            29.42602
          ],
          [
            75.27907,
            29.4429
          ],
          [
            75.24039,
            29.46065
          ],
          [
            75.19153,
            29.48823
          ],
          [
            75.148,
            29.55283
          ],
          [
            75.11317,
            29.61297
          ]
        ]
      },
      "properties": {
        "kind": "centerline",
        "source_id": "src_002",
        "points_eta_hours": [
          0,
          1,
          2,
          3,
          4,
          5,
          6,
          7,
          8,
          9,
          10,
          11,
          12,
          13,
          14,
          15,
          16,
          17,
          18,
          19,
          20,
          21,
          22,
          23,
          24
        ]
      }
    },
    {
      "type": "Feature",
      "geometry": {
        "type": "Polygon",
        "coordinates": [
          [
            [
              74.46844,
              29.56462
            ],
            [
              74.44594,
              29.58198
            ],
            [
              74.44757,
              29.60175
            ],
            [
              74.59421,
              29.47431
            ],
            [
              74.57318,
              29.47139
            ],
            [
              74.51062,
              29.47276
            ],
            [
              74.46844,
              29.56462
            ]
          ]
        ]
      },
      "properties": {
        "kind": "band",
        "source_id": "src_002",
        "hour_from": 0,
        "hour_to": 2,
        "risk": 0.2,
        "pm25_delta_ugm3": 15.0
      }
    },
    {
      "type": "Feature",
      "geometry": {
        "type": "Polygon",
        "coordinates": [
          [
            [
              74.43309,
              29.58592
            ],
            [
              74.43014,
              29.6006
            ],
            [
              74.44151,
              29.64195
            ],
            [
              74.66076,
              29.54466
            ],
            [
              74.63352,
              29.51033
            ],
            [
              74.60869,
              29.49013
            ],
            [
              74.43309,
              29.58592
            ]
          ]
        ]
      },
      "properties": {
        "kind": "band",
        "source_id": "src_002",
        "hour_from": 2,
        "hour_to": 4,
        "risk": 0.2,
        "pm25_delta_ugm3": 15.0
      }
    },
    {
      "type": "Feature",
      "geometry": {
        "type": "Polygon",
        "coordinates": [
          [
            [
              74.43108,
              29.61677
            ],
            [
              74.46036,
              29.70322
            ],
            [
              74.53164,
              29.77512
            ],
            [
              74.63227,
              29.82366
            ],
            [
              74.7229,
              29.84517
            ],
            [
              74.77574,
              29.5875
            ],
            [
              74.68298,
              29.57635
            ],
            [
              74.6553,
              29.56062
            ],
            [
              74.65763,
              29.55352
            ],
            [
              74.67124,
              29.56983
            ],
            [
              74.43108,
              29.61677
            ]
          ]
        ]
      },
      "properties": {
        "kind": "band",
        "source_id": "src_002",
        "hour_from": 4,
        "hour_to": 8,
        "risk": 0.2,
        "pm25_delta_ugm3": 15.0
      }
    },
    {
      "type": "Feature",
      "geometry": {
        "type": "Polygon",
        "coordinates": [
          [
            [
              74.76119,
              29.84679
            ],
            [
              74.8825,
              29.84204
            ],
            [
              75.01882,
              29.82717
            ],
            [
              75.15583,
              29.79918
            ],
            [
              75.29084,
              29.76193
            ],
            [
              75.42061,
              29.70315
            ],
            [
              75.49692,
              29.6344
            ],
            [
              75.51285,
              29.61141
            ],
            [
              75.56057,
              29.5206
            ],
            [
              75.52257,
              29.35064
            ],
            [
              75.3772,
              29.26119
            ],
            [
              75.2225,
              29.26975
            ],
            [
              75.19384,
              29.28096
            ],
            [
              75.13819,
              29.30269
            ],
            [
              75.01599,
              29.38504
            ],
            [
              74.96167,
              29.45875
            ],
            [
              74.92378,
              29.5174
            ],
            [
              75.30293,
              29.70827
            ],
            [
              75.33468,
              29.64664
            ],
            [
              75.36743,
              29.59118
            ],
            [
              75.34291,
              29.61854
            ],
            [
              75.36456,
              29.60478
            ],
            [
              75.403,
              29.58223
            ],
            [
              75.32429,
              29.6012
            ],
            [
              75.23308,
              29.57319
            ],
            [
              75.18565,
              29.47746
            ],
            [
              75.20026,
              29.43937
            ],
            [
              75.17909,
              29.48493
            ],
            [
              75.19278,
              29.46937
            ],
            [
              75.14777,
              29.49078
            ],
            [
              75.05848,
              29.52198
            ],
            [
              74.94394,
              29.55387
            ],
            [
              74.83874,
              29.57312
            ],
            [
              74.73755,
              29.58588
            ],
            [
              74.76119,
              29.84679
            ]
          ]
        ]
      },
      "properties": {
        "kind": "band",
        "source_id": "src_002",
        "hour_from": 8,
        "hour_to": 24,
        "risk": 0.2,
        "pm25_delta_ugm3": 15.0
      }
    },
    {
      "type": "Feature",
      "geometry": {
        "type": "LineString",
        "coordinates": [
          [
            74.49818,
            31.35165
          ],
          [
            74.4795,
            31.33931
          ],
          [
            74.45917,
            31.32041
          ],
          [
            74.42955,
            31.30259
          ],
          [
            74.36958,
            31.28895
          ],
          [
            74.32642,
            31.29378
          ],
          [
            74.2861,
            31.32053
          ],
          [
            74.25863,
            31.34734
          ],
          [
            74.24963,
            31.37188
          ],
          [
            74.27982,
            31.3859
          ],
          [
            74.32779,
            31.39054
          ],
          [
            74.37519,
            31.3864
          ],
          [
            74.41954,
            31.3803
          ],
          [
            74.44653,
            31.37385
          ],
          [
            74.45591,
            31.3715
          ],
          [
            74.46247,
            31.37067
          ],
          [
            74.45501,
            31.35465
          ],
          [
            74.42593,
            31.32877
          ],
          [
            74.38342,
            31.29503
          ],
          [
            74.33621,
            31.26784
          ],
          [
            74.28785,
            31.24373
          ],
          [
            74.2221,
            31.21499
          ],
          [
            74.16615,
            31.20891
          ],
          [
            74.11164,
            31.20702
          ],
          [
            74.05276,
            31.20748
          ]
        ]
      },
      "properties": {
        "kind": "centerline",
        "source_id": "src_010",
        "points_eta_hours": [
          0,
          1,
          2,
          3,
          4,
          5,
          6,
          7,
          8,
          9,
          10,
          11,
          12,
          13,
          14,
          15,
          16,
          17,
          18,
          19,
          20,
          21,
          22,
          23,
          24
        ]
      }
    },
    {
      "type": "Feature",
      "geometry": {
        "type": "Polygon",
        "coordinates": [
          [
            [
              74.52951,
              31.31113
            ],
            [
              74.54113,
              31.28266
            ],
            [
              74.53028,
              31.25502
            ],
            [
              74.38797,
              31.38576
            ],
            [
              74.4178,
              31.39593
            ],
            [
              74.46682,
              31.39217
            ],
            [
              74.52951,
              31.31113
            ]
          ]
        ]
      },
      "properties": {
        "kind": "band",
        "source_id": "src_010",
        "hour_from": 0,
        "hour_to": 2,
        "risk": 0.2,
        "pm25_delta_ugm3": 15.0
      }
    },
    {
      "type": "Feature",
      "geometry": {
        "type": "Polygon",
        "coordinates": [
          [
            [
              74.51298,
              31.2439
            ],
            [
              74.45507,
              31.20663
            ],
            [
              74.3971,
              31.18547
            ],
            [
              74.342,
              31.39242
            ],
            [
              74.40397,
              31.39854
            ],
            [
              74.40528,
              31.39689
            ],
            [
              74.51298,
              31.2439
            ]
          ]
        ]
      },
      "properties": {
        "kind": "band",
        "source_id": "src_010",
        "hour_from": 2,
        "hour_to": 4,
        "risk": 0.2,
        "pm25_delta_ugm3": 15.0
      }
    },
    {
      "type": "Feature",
      "geometry": {
        "type": "Polygon",
        "coordinates": [
          [
            [
              74.35578,
              31.18349
            ],
            [
              74.25343,
              31.19967
            ],
            [
              74.18883,
              31.2353
            ],
            [
              74.1216,
              31.30434
            ],
            [
              74.10679,
              31.32706
            ],
            [
              74.39261,
              31.41655
            ],
            [
              74.39579,
              31.3902
            ],
            [
              74.38354,
              31.40568
            ],
            [
              74.39954,
              31.38785
            ],
            [
              74.38341,
              31.39441
            ],
            [
              74.35578,
              31.18349
            ]
          ]
        ]
      },
      "properties": {
        "kind": "band",
        "source_id": "src_010",
        "hour_from": 4,
        "hour_to": 8,
        "risk": 0.2,
        "pm25_delta_ugm3": 15.0
      }
    },
    {
      "type": "Feature",
      "geometry": {
        "type": "Polygon",
        "coordinates": [
          [
            [
              74.18547,
              31.48975
            ],
            [
              74.26458,
              31.52017
            ],
            [
              74.34202,
              31.52958
            ],
            [
              74.39824,
              31.52906
            ],
            [
              74.45995,
              31.52449
            ],
            [
              74.48997,
              31.5216
            ],
            [
              74.47885,
              31.52651
            ],
            [
              74.63224,
              31.30298
            ],
            [
              74.58226,
              31.23231
            ],
            [
              74.54745,
              31.19773
            ],
            [
              74.48296,
              31.14712
            ],
            [
              74.42691,
              31.11209
            ],
            [
              74.37073,
              31.08127
            ],
            [
              74.24484,
              31.0356
            ],
            [
              74.17358,
              31.02548
            ],
            [
              74.10995,
              31.02045
            ],
            [
              74.05105,
              31.01793
            ],
            [
              74.05448,
              31.39702
            ],
            [
              74.11333,
              31.39359
            ],
            [
              74.15869,
              31.39235
            ],
            [
              74.19927,
              31.39438
            ],
            [
              74.20469,
              31.40613
            ],
            [
              74.24521,
              31.42352
            ],
            [
              74.28356,
              31.44287
            ],
            [
              74.30407,
              31.4597
            ],
            [
              74.32743,
              31.47686
            ],
            [
              74.29246,
              31.43813
            ],
            [
              74.43305,
              31.21648
            ],
            [
              74.40322,
              31.22609
            ],
            [
              74.37926,
              31.23609
            ],
            [
              74.35222,
              31.24374
            ],
            [
              74.3136,
              31.2515
            ],
            [
              74.29502,
              31.25162
            ],
            [
              74.31364,
              31.25399
            ],
            [
              74.18547,
              31.48975
            ]
          ]
        ]
      },
      "properties": {
        "kind": "band",
        "source_id": "src_010",
        "hour_from": 8,
        "hour_to": 24,
        "risk": 0.2,
        "pm25_delta_ugm3": 15.0
      }
    }
  ]
}